<?xml version='1.0' encoding='UTF-8'?>
<gpx version="1.1" creator="https://www.komoot.de" xmlns="http://www.topografix.com/GPX/1/1" xmlns:xsi="http://www.w3.org/2001/XMLSchema-instance" xsi:schemaLocation="http://www.topografix.com/GPX/1/1 http://www.topografix.com/GPX/1/1/gpx.xsd">
  <metadata>
    <name>de La Danchère à Refuge des Clots</name>
    <author>
      <link href="https://www.komoot.de">
        <text>komoot</text>
        <type>text/html</type>
      </link>
    </author>
  </metadata>
  <wpt lat="45.043540" lon="6.183030">
    <name>Refuge des Clots</name>
    <sym>Fishing Hot Spot Facility</sym>
  </wpt>
  <trk>
    <name>de La Danchère à Refuge des Clots</name>
    <type>jogging</type>
    <trkseg>
      <trkpt lat="44.988802" lon="6.078840">
        <ele>973.556426</ele>
        <time>2026-01-24T19:38:17.469Z</time>
      </trkpt>
      <trkpt lat="44.988853" lon="6.078979">
        <ele>973.556426</ele>
        <time>2026-01-24T19:38:21.182Z</time>
      </trkpt>
      <trkpt lat="44.988854" lon="6.079068">
        <ele>973.556426</ele>
        <time>2026-01-24T19:38:23.255Z</time>
      </trkpt>
      <trkpt lat="44.988899" lon="6.079203">
        <ele>973.556426</ele>
        <time>2026-01-24T19:38:27.327Z</time>
      </trkpt>
      <trkpt lat="44.988911" lon="6.079224">
        <ele>973.556426</ele>
        <time>2026-01-24T19:38:28.045Z</time>
      </trkpt>
      <trkpt lat="44.989072" lon="6.079472">
        <ele>973.556426</ele>
        <time>2026-01-24T19:38:37.072Z</time>
      </trkpt>
      <trkpt lat="44.989219" lon="6.079514">
        <ele>973.556426</ele>
        <time>2026-01-24T19:38:42.741Z</time>
      </trkpt>
      <trkpt lat="44.989316" lon="6.079481">
        <ele>973.556426</ele>
        <time>2026-01-24T19:38:46.491Z</time>
      </trkpt>
      <trkpt lat="44.989378" lon="6.079543">
        <ele>973.556426</ele>
        <time>2026-01-24T19:38:49.358Z</time>
      </trkpt>
      <trkpt lat="44.989507" lon="6.079436">
        <ele>971.335544</ele>
        <time>2026-01-24T19:38:54.970Z</time>
      </trkpt>
      <trkpt lat="44.989708" lon="6.079573">
        <ele>966.924613</ele>
        <time>2026-01-24T19:39:03.322Z</time>
      </trkpt>
      <trkpt lat="44.989999" lon="6.079908">
        <ele>959.506628</ele>
        <time>2026-01-24T19:39:17.285Z</time>
      </trkpt>
      <trkpt lat="44.990154" lon="6.080029">
        <ele>956.006620</ele>
        <time>2026-01-24T19:39:23.888Z</time>
      </trkpt>
      <trkpt lat="44.990300" lon="6.080064">
        <ele>953.079298</ele>
        <time>2026-01-24T19:39:29.383Z</time>
      </trkpt>
      <trkpt lat="44.990327" lon="6.079911">
        <ele>950.874698</ele>
        <time>2026-01-24T19:39:33.532Z</time>
      </trkpt>
      <trkpt lat="44.990547" lon="6.079857">
        <ele>946.460686</ele>
        <time>2026-01-24T19:39:41.837Z</time>
      </trkpt>
      <trkpt lat="44.990588" lon="6.079877">
        <ele>945.603321</ele>
        <time>2026-01-24T19:39:43.468Z</time>
      </trkpt>
      <trkpt lat="44.990727" lon="6.079742">
        <ele>942.269810</ele>
        <time>2026-01-24T19:39:49.764Z</time>
      </trkpt>
      <trkpt lat="44.990942" lon="6.079711">
        <ele>937.997375</ele>
        <time>2026-01-24T19:39:57.784Z</time>
      </trkpt>
      <trkpt lat="44.991286" lon="6.079836">
        <ele>930.380789</ele>
        <time>2026-01-24T19:40:11.001Z</time>
      </trkpt>
      <trkpt lat="44.991396" lon="6.079805">
        <ele>927.975503</ele>
        <time>2026-01-24T19:40:15.174Z</time>
      </trkpt>
      <trkpt lat="44.991525" lon="6.079710">
        <ele>924.856470</ele>
        <time>2026-01-24T19:40:20.579Z</time>
      </trkpt>
      <trkpt lat="44.991640" lon="6.079671">
        <ele>922.320421</ele>
        <time>2026-01-24T19:40:25.023Z</time>
      </trkpt>
      <trkpt lat="44.991745" lon="6.079917">
        <ele>917.962825</ele>
        <time>2026-01-24T19:40:32.767Z</time>
      </trkpt>
      <trkpt lat="44.991805" lon="6.079984">
        <ele>916.323320</ele>
        <time>2026-01-24T19:40:35.678Z</time>
      </trkpt>
      <trkpt lat="44.991883" lon="6.079999">
        <ele>914.635254</ele>
        <time>2026-01-24T19:40:38.629Z</time>
      </trkpt>
      <trkpt lat="44.991928" lon="6.079983">
        <ele>913.640214</ele>
        <time>2026-01-24T19:40:40.341Z</time>
      </trkpt>
      <trkpt lat="44.991945" lon="6.079916">
        <ele>912.560696</ele>
        <time>2026-01-24T19:40:42.224Z</time>
      </trkpt>
      <trkpt lat="44.991923" lon="6.079618">
        <ele>908.016772</ele>
        <time>2026-01-24T19:40:50.085Z</time>
      </trkpt>
      <trkpt lat="44.991953" lon="6.079574">
        <ele>907.089867</ele>
        <time>2026-01-24T19:40:51.709Z</time>
      </trkpt>
      <trkpt lat="44.992011" lon="6.079569">
        <ele>905.843779</ele>
        <time>2026-01-24T19:40:53.859Z</time>
      </trkpt>
      <trkpt lat="44.992055" lon="6.079643">
        <ele>904.377573</ele>
        <time>2026-01-24T19:40:56.396Z</time>
      </trkpt>
      <trkpt lat="44.992057" lon="6.079684">
        <ele>903.754305</ele>
        <time>2026-01-24T19:40:57.331Z</time>
      </trkpt>
      <trkpt lat="44.992141" lon="6.079754">
        <ele>901.663423</ele>
        <time>2026-01-24T19:41:00.954Z</time>
      </trkpt>
      <trkpt lat="44.992256" lon="6.079779">
        <ele>899.258144</ele>
        <time>2026-01-24T19:41:05.327Z</time>
      </trkpt>
      <trkpt lat="44.992518" lon="6.079880">
        <ele>895.434823</ele>
        <time>2026-01-24T19:41:13.963Z</time>
      </trkpt>
      <trkpt lat="44.992556" lon="6.079687">
        <ele>893.440104</ele>
        <time>2026-01-24T19:41:18.482Z</time>
      </trkpt>
      <trkpt lat="44.992732" lon="6.079213">
        <ele>888.109703</ele>
        <time>2026-01-24T19:41:32.701Z</time>
      </trkpt>
      <trkpt lat="44.992709" lon="6.078843">
        <ele>884.411548</ele>
        <time>2026-01-24T19:41:42.635Z</time>
      </trkpt>
      <trkpt lat="44.992616" lon="6.078556">
        <ele>881.268300</ele>
        <time>2026-01-24T19:41:51.128Z</time>
      </trkpt>
      <trkpt lat="44.992654" lon="6.078422">
        <ele>879.830841</ele>
        <time>2026-01-24T19:41:55.068Z</time>
      </trkpt>
      <trkpt lat="44.992870" lon="6.078720">
        <ele>875.582125</ele>
        <time>2026-01-24T19:42:06.631Z</time>
      </trkpt>
      <trkpt lat="44.993064" lon="6.079087">
        <ele>872.641422</ele>
        <time>2026-01-24T19:42:19.638Z</time>
      </trkpt>
      <trkpt lat="44.993192" lon="6.079376">
        <ele>871.029660</ele>
        <time>2026-01-24T19:42:29.581Z</time>
      </trkpt>
      <trkpt lat="44.993226" lon="6.079596">
        <ele>869.965276</ele>
        <time>2026-01-24T19:42:36.031Z</time>
      </trkpt>
      <trkpt lat="44.993283" lon="6.079639">
        <ele>869.533488</ele>
        <time>2026-01-24T19:42:38.677Z</time>
      </trkpt>
      <trkpt lat="44.993313" lon="6.080007">
        <ele>867.782597</ele>
        <time>2026-01-24T19:42:47.545Z</time>
      </trkpt>
      <trkpt lat="44.993204" lon="6.080286">
        <ele>866.276038</ele>
        <time>2026-01-24T19:42:55.367Z</time>
      </trkpt>
      <trkpt lat="44.993074" lon="6.080621">
        <ele>864.469914</ele>
        <time>2026-01-24T19:43:04.890Z</time>
      </trkpt>
      <trkpt lat="44.993041" lon="6.080843">
        <ele>863.397685</ele>
        <time>2026-01-24T19:43:10.705Z</time>
      </trkpt>
      <trkpt lat="44.993091" lon="6.080935">
        <ele>862.849264</ele>
        <time>2026-01-24T19:43:13.718Z</time>
      </trkpt>
      <trkpt lat="44.993322" lon="6.081224">
        <ele>862.332710</ele>
        <time>2026-01-24T19:43:25.557Z</time>
      </trkpt>
      <trkpt lat="44.993397" lon="6.081322">
        <ele>862.462832</ele>
        <time>2026-01-24T19:43:29.750Z</time>
      </trkpt>
      <trkpt lat="44.992010" lon="6.084581">
        <ele>868.660223</ele>
        <time>2026-01-24T19:45:32.523Z</time>
      </trkpt>
      <trkpt lat="44.991962" lon="6.084893">
        <ele>869.474638</ele>
        <time>2026-01-24T19:45:43.516Z</time>
      </trkpt>
      <trkpt lat="44.991970" lon="6.085045">
        <ele>869.863409</ele>
        <time>2026-01-24T19:45:48.772Z</time>
      </trkpt>
      <trkpt lat="44.992185" lon="6.086416">
        <ele>878.804238</ele>
        <time>2026-01-24T19:46:40.865Z</time>
      </trkpt>
      <trkpt lat="44.992200" lon="6.086592">
        <ele>880.195231</ele>
        <time>2026-01-24T19:46:48.372Z</time>
      </trkpt>
      <trkpt lat="44.992186" lon="6.086761">
        <ele>881.530372</ele>
        <time>2026-01-24T19:46:55.983Z</time>
      </trkpt>
      <trkpt lat="44.992123" lon="6.087005">
        <ele>883.568552</ele>
        <time>2026-01-24T19:47:08.370Z</time>
      </trkpt>
      <trkpt lat="44.992140" lon="6.087474">
        <ele>887.253440</ele>
        <time>2026-01-24T19:47:43.035Z</time>
      </trkpt>
      <trkpt lat="44.992388" lon="6.087114">
        <ele>891.783514</ele>
        <time>2026-01-24T19:48:26.823Z</time>
      </trkpt>
      <trkpt lat="44.992390" lon="6.087729">
        <ele>904.134453</ele>
        <time>2026-01-24T19:49:34.464Z</time>
      </trkpt>
      <trkpt lat="44.992523" lon="6.087683">
        <ele>908.022636</ele>
        <time>2026-01-24T19:49:58.170Z</time>
      </trkpt>
      <trkpt lat="44.992513" lon="6.088068">
        <ele>915.759639</ele>
        <time>2026-01-24T19:50:48.673Z</time>
      </trkpt>
      <trkpt lat="44.992640" lon="6.088078">
        <ele>919.371687</ele>
        <time>2026-01-24T19:51:13.837Z</time>
      </trkpt>
      <trkpt lat="44.992691" lon="6.088221">
        <ele>922.588006</ele>
        <time>2026-01-24T19:51:36.831Z</time>
      </trkpt>
      <trkpt lat="44.992570" lon="6.088592">
        <ele>930.792782</ele>
        <time>2026-01-24T19:52:38.876Z</time>
      </trkpt>
      <trkpt lat="44.992703" lon="6.088687">
        <ele>935.024143</ele>
        <time>2026-01-24T19:53:11.903Z</time>
      </trkpt>
      <trkpt lat="44.992670" lon="6.089308">
        <ele>949.057938</ele>
        <time>2026-01-24T19:54:53.318Z</time>
      </trkpt>
      <trkpt lat="44.992725" lon="6.089806">
        <ele>961.924844</ele>
        <time>2026-01-24T19:56:17.448Z</time>
      </trkpt>
      <trkpt lat="44.992793" lon="6.089816">
        <ele>964.392684</ele>
        <time>2026-01-24T19:56:33.659Z</time>
      </trkpt>
      <trkpt lat="44.992730" lon="6.090081">
        <ele>971.529541</ele>
        <time>2026-01-24T19:57:21.400Z</time>
      </trkpt>
      <trkpt lat="44.992810" lon="6.090050">
        <ele>974.523777</ele>
        <time>2026-01-24T19:57:41.500Z</time>
      </trkpt>
      <trkpt lat="44.992798" lon="6.090339">
        <ele>981.913987</ele>
        <time>2026-01-24T19:58:31.516Z</time>
      </trkpt>
      <trkpt lat="44.992927" lon="6.090632">
        <ele>990.724647</ele>
        <time>2026-01-24T19:59:31.073Z</time>
      </trkpt>
      <trkpt lat="44.993185" lon="6.090425">
        <ele>1001.432389</ele>
        <time>2026-01-24T20:00:42.134Z</time>
      </trkpt>
      <trkpt lat="44.993442" lon="6.090301">
        <ele>1010.981881</ele>
        <time>2026-01-24T20:01:46.258Z</time>
      </trkpt>
      <trkpt lat="44.993788" lon="6.089993">
        <ele>1024.895006</ele>
        <time>2026-01-24T20:03:19.973Z</time>
      </trkpt>
      <trkpt lat="44.993833" lon="6.090148">
        <ele>1028.927237</ele>
        <time>2026-01-24T20:03:46.357Z</time>
      </trkpt>
      <trkpt lat="44.993955" lon="6.089879">
        <ele>1036.617704</ele>
        <time>2026-01-24T20:04:36.107Z</time>
      </trkpt>
      <trkpt lat="44.994015" lon="6.090047">
        <ele>1041.146998</ele>
        <time>2026-01-24T20:05:04.970Z</time>
      </trkpt>
      <trkpt lat="44.993924" lon="6.090415">
        <ele>1050.528836</ele>
        <time>2026-01-24T20:06:03.799Z</time>
      </trkpt>
      <trkpt lat="44.994139" lon="6.090332">
        <ele>1058.113012</ele>
        <time>2026-01-24T20:06:51.015Z</time>
      </trkpt>
      <trkpt lat="44.994116" lon="6.090622">
        <ele>1065.135678</ele>
        <time>2026-01-24T20:07:35.629Z</time>
      </trkpt>
      <trkpt lat="44.994198" lon="6.090919">
        <ele>1072.481703</ele>
        <time>2026-01-24T20:08:26.057Z</time>
      </trkpt>
      <trkpt lat="44.994332" lon="6.091620">
        <ele>1088.761688</ele>
        <time>2026-01-24T20:10:20.649Z</time>
      </trkpt>
      <trkpt lat="44.994672" lon="6.092409">
        <ele>1109.475861</ele>
        <time>2026-01-24T20:12:36.869Z</time>
      </trkpt>
      <trkpt lat="44.995128" lon="6.091020">
        <ele>1142.751573</ele>
        <time>2026-01-24T20:15:59.288Z</time>
      </trkpt>
      <trkpt lat="44.995113" lon="6.090872">
        <ele>1145.914697</ele>
        <time>2026-01-24T20:16:17.617Z</time>
      </trkpt>
      <trkpt lat="44.995478" lon="6.089699">
        <ele>1173.027153</ele>
        <time>2026-01-24T20:19:15.766Z</time>
      </trkpt>
      <trkpt lat="44.995653" lon="6.089981">
        <ele>1180.847439</ele>
        <time>2026-01-24T20:20:11.086Z</time>
      </trkpt>
      <trkpt lat="44.995788" lon="6.089748">
        <ele>1186.864845</ele>
        <time>2026-01-24T20:20:54.299Z</time>
      </trkpt>
      <trkpt lat="44.995877" lon="6.090024">
        <ele>1192.924605</ele>
        <time>2026-01-24T20:21:36.013Z</time>
      </trkpt>
      <trkpt lat="44.996092" lon="6.089600">
        <ele>1203.347246</ele>
        <time>2026-01-24T20:22:44.936Z</time>
      </trkpt>
      <trkpt lat="44.996027" lon="6.089042">
        <ele>1214.644443</ele>
        <time>2026-01-24T20:23:58.411Z</time>
      </trkpt>
      <trkpt lat="44.996057" lon="6.088681">
        <ele>1221.905642</ele>
        <time>2026-01-24T20:24:43.274Z</time>
      </trkpt>
      <trkpt lat="44.996172" lon="6.088427">
        <ele>1227.930591</ele>
        <time>2026-01-24T20:25:18.979Z</time>
      </trkpt>
      <trkpt lat="44.996832" lon="6.087735">
        <ele>1244.048330</ele>
        <time>2026-01-24T20:27:30.990Z</time>
      </trkpt>
      <trkpt lat="44.997446" lon="6.087177">
        <ele>1257.854704</ele>
        <time>2026-01-24T20:29:01.352Z</time>
      </trkpt>
      <trkpt lat="44.997546" lon="6.086682">
        <ele>1264.445890</ele>
        <time>2026-01-24T20:29:34.960Z</time>
      </trkpt>
      <trkpt lat="44.998161" lon="6.085509">
        <ele>1278.458630</ele>
        <time>2026-01-24T20:31:06.253Z</time>
      </trkpt>
      <trkpt lat="44.999290" lon="6.084965">
        <ele>1299.975379</ele>
        <time>2026-01-24T20:33:34.835Z</time>
      </trkpt>
      <trkpt lat="44.999594" lon="6.084535">
        <ele>1310.566549</ele>
        <time>2026-01-24T20:34:47.499Z</time>
      </trkpt>
      <trkpt lat="44.999989" lon="6.084252">
        <ele>1321.473883</ele>
        <time>2026-01-24T20:36:06.347Z</time>
      </trkpt>
      <trkpt lat="45.000484" lon="6.084259">
        <ele>1333.730799</ele>
        <time>2026-01-24T20:37:37.622Z</time>
      </trkpt>
      <trkpt lat="45.000943" lon="6.083906">
        <ele>1347.246815</ele>
        <time>2026-01-24T20:39:18.282Z</time>
      </trkpt>
      <trkpt lat="45.001473" lon="6.083772">
        <ele>1361.174775</ele>
        <time>2026-01-24T20:40:55.145Z</time>
      </trkpt>
      <trkpt lat="45.001799" lon="6.083923">
        <ele>1370.048865</ele>
        <time>2026-01-24T20:41:50.634Z</time>
      </trkpt>
      <trkpt lat="45.001952" lon="6.083779">
        <ele>1374.803162</ele>
        <time>2026-01-24T20:42:18.457Z</time>
      </trkpt>
      <trkpt lat="45.002755" lon="6.082859">
        <ele>1396.079051</ele>
        <time>2026-01-24T20:44:36.033Z</time>
      </trkpt>
      <trkpt lat="45.002915" lon="6.082307">
        <ele>1404.355626</ele>
        <time>2026-01-24T20:45:32.154Z</time>
      </trkpt>
      <trkpt lat="45.003805" lon="6.081631">
        <ele>1419.988414</ele>
        <time>2026-01-24T20:47:49.341Z</time>
      </trkpt>
      <trkpt lat="45.004035" lon="6.081638">
        <ele>1422.601325</ele>
        <time>2026-01-24T20:48:10.040Z</time>
      </trkpt>
      <trkpt lat="45.004285" lon="6.081666">
        <ele>1425.449677</ele>
        <time>2026-01-24T20:48:36.816Z</time>
      </trkpt>
      <trkpt lat="45.004495" lon="6.081214">
        <ele>1429.793017</ele>
        <time>2026-01-24T20:49:17.309Z</time>
      </trkpt>
      <trkpt lat="45.004799" lon="6.080437">
        <ele>1437.251604</ele>
        <time>2026-01-24T20:50:30.757Z</time>
      </trkpt>
      <trkpt lat="45.005109" lon="6.079815">
        <ele>1444.245784</ele>
        <time>2026-01-24T20:51:10.854Z</time>
      </trkpt>
      <trkpt lat="45.005898" lon="6.079434">
        <ele>1455.083202</ele>
        <time>2026-01-24T20:52:40.771Z</time>
      </trkpt>
      <trkpt lat="45.006588" lon="6.079017">
        <ele>1460.127019</ele>
        <time>2026-01-24T20:53:45.560Z</time>
      </trkpt>
      <trkpt lat="45.007202" lon="6.078918">
        <ele>1462.593682</ele>
        <time>2026-01-24T20:54:19.115Z</time>
      </trkpt>
      <trkpt lat="45.008582" lon="6.079153">
        <ele>1464.834179</ele>
        <time>2026-01-24T20:55:21.210Z</time>
      </trkpt>
      <trkpt lat="45.008785" lon="6.078963">
        <ele>1464.706180</ele>
        <time>2026-01-24T20:55:31.924Z</time>
      </trkpt>
      <trkpt lat="45.008818" lon="6.078588">
        <ele>1464.565694</ele>
        <time>2026-01-24T20:55:44.193Z</time>
      </trkpt>
      <trkpt lat="45.008983" lon="6.078338">
        <ele>1464.438550</ele>
        <time>2026-01-24T20:55:56.187Z</time>
      </trkpt>
      <trkpt lat="45.008981" lon="6.077904">
        <ele>1464.277202</ele>
        <time>2026-01-24T20:56:13.536Z</time>
      </trkpt>
      <trkpt lat="45.009083" lon="6.077786">
        <ele>1465.815816</ele>
        <time>2026-01-24T20:56:21.583Z</time>
      </trkpt>
      <trkpt lat="45.009233" lon="6.078176">
        <ele>1469.702924</ele>
        <time>2026-01-24T20:56:43.472Z</time>
      </trkpt>
      <trkpt lat="45.009249" lon="6.077774">
        <ele>1473.228093</ele>
        <time>2026-01-24T20:57:07.477Z</time>
      </trkpt>
      <trkpt lat="45.009435" lon="6.077547">
        <ele>1476.270364</ele>
        <time>2026-01-24T20:57:29.786Z</time>
      </trkpt>
      <trkpt lat="45.009618" lon="6.077154">
        <ele>1480.390407</ele>
        <time>2026-01-24T20:58:01.404Z</time>
      </trkpt>
      <trkpt lat="45.009821" lon="6.077010">
        <ele>1483.202730</ele>
        <time>2026-01-24T20:58:23.627Z</time>
      </trkpt>
      <trkpt lat="45.010046" lon="6.076670">
        <ele>1487.704417</ele>
        <time>2026-01-24T20:58:56.750Z</time>
      </trkpt>
      <trkpt lat="45.010252" lon="6.075801">
        <ele>1500.376157</ele>
        <time>2026-01-24T21:00:06.267Z</time>
      </trkpt>
      <trkpt lat="45.010381" lon="6.075618">
        <ele>1503.948984</ele>
        <time>2026-01-24T21:00:27.600Z</time>
      </trkpt>
      <trkpt lat="45.010763" lon="6.075546">
        <ele>1511.485272</ele>
        <time>2026-01-24T21:01:14.549Z</time>
      </trkpt>
      <trkpt lat="45.010946" lon="6.075454">
        <ele>1515.283269</ele>
        <time>2026-01-24T21:01:38.679Z</time>
      </trkpt>
      <trkpt lat="45.011310" lon="6.075806">
        <ele>1523.687974</ele>
        <time>2026-01-24T21:02:34.103Z</time>
      </trkpt>
      <trkpt lat="45.011709" lon="6.075963">
        <ele>1530.978672</ele>
        <time>2026-01-24T21:03:23.011Z</time>
      </trkpt>
      <trkpt lat="45.011981" lon="6.076140">
        <ele>1536.249354</ele>
        <time>2026-01-24T21:03:54.575Z</time>
      </trkpt>
      <trkpt lat="45.012200" lon="6.076170">
        <ele>1540.122663</ele>
        <time>2026-01-24T21:04:15.944Z</time>
      </trkpt>
      <trkpt lat="45.012716" lon="6.076230">
        <ele>1549.236959</ele>
        <time>2026-01-24T21:05:04.203Z</time>
      </trkpt>
      <trkpt lat="45.013224" lon="6.076560">
        <ele>1560.103301</ele>
        <time>2026-01-24T21:05:58.734Z</time>
      </trkpt>
      <trkpt lat="45.013441" lon="6.076883">
        <ele>1566.647583</ele>
        <time>2026-01-24T21:06:37.861Z</time>
      </trkpt>
      <trkpt lat="45.013769" lon="6.077799">
        <ele>1581.727937</ele>
        <time>2026-01-24T21:08:22.934Z</time>
      </trkpt>
      <trkpt lat="45.014109" lon="6.078110">
        <ele>1590.139576</ele>
        <time>2026-01-24T21:09:31.387Z</time>
      </trkpt>
      <trkpt lat="45.014618" lon="6.078364">
        <ele>1602.526762</ele>
        <time>2026-01-24T21:11:05.268Z</time>
      </trkpt>
      <trkpt lat="45.014946" lon="6.078894">
        <ele>1614.017437</ele>
        <time>2026-01-24T21:12:27.509Z</time>
      </trkpt>
      <trkpt lat="45.014972" lon="6.079377">
        <ele>1621.919266</ele>
        <time>2026-01-24T21:13:21.160Z</time>
      </trkpt>
      <trkpt lat="45.015382" lon="6.080017">
        <ele>1634.293192</ele>
        <time>2026-01-24T21:14:44.930Z</time>
      </trkpt>
      <trkpt lat="45.015401" lon="6.080284">
        <ele>1636.669699</ele>
        <time>2026-01-24T21:15:06.520Z</time>
      </trkpt>
      <trkpt lat="45.015310" lon="6.080782">
        <ele>1641.224956</ele>
        <time>2026-01-24T21:15:44.463Z</time>
      </trkpt>
      <trkpt lat="45.015277" lon="6.081373">
        <ele>1646.475172</ele>
        <time>2026-01-24T21:16:25.591Z</time>
      </trkpt>
      <trkpt lat="45.015317" lon="6.081372">
        <ele>1646.976357</ele>
        <time>2026-01-24T21:16:29.421Z</time>
      </trkpt>
      <trkpt lat="45.015344" lon="6.081882">
        <ele>1651.505578</ele>
        <time>2026-01-24T21:17:02.593Z</time>
      </trkpt>
      <trkpt lat="45.015184" lon="6.083218">
        <ele>1658.288353</ele>
        <time>2026-01-24T21:18:17.970Z</time>
      </trkpt>
      <trkpt lat="45.015173" lon="6.083996">
        <ele>1661.054990</ele>
        <time>2026-01-24T21:18:56.286Z</time>
      </trkpt>
      <trkpt lat="45.015116" lon="6.084623">
        <ele>1663.302570</ele>
        <time>2026-01-24T21:19:25.135Z</time>
      </trkpt>
      <trkpt lat="45.015033" lon="6.085229">
        <ele>1663.016496</ele>
        <time>2026-01-24T21:19:51.059Z</time>
      </trkpt>
      <trkpt lat="45.014838" lon="6.086050">
        <ele>1661.500533</ele>
        <time>2026-01-24T21:20:24.358Z</time>
      </trkpt>
      <trkpt lat="45.014824" lon="6.086576">
        <ele>1660.579204</ele>
        <time>2026-01-24T21:20:43.511Z</time>
      </trkpt>
      <trkpt lat="45.014737" lon="6.086946">
        <ele>1659.896695</ele>
        <time>2026-01-24T21:20:57.362Z</time>
      </trkpt>
      <trkpt lat="45.014752" lon="6.087322">
        <ele>1659.260462</ele>
        <time>2026-01-24T21:21:10.685Z</time>
      </trkpt>
      <trkpt lat="45.014733" lon="6.087788">
        <ele>1658.573676</ele>
        <time>2026-01-24T21:21:27.250Z</time>
      </trkpt>
      <trkpt lat="45.014654" lon="6.087960">
        <ele>1658.271881</ele>
        <time>2026-01-24T21:21:34.565Z</time>
      </trkpt>
      <trkpt lat="45.014616" lon="6.088314">
        <ele>1657.745053</ele>
        <time>2026-01-24T21:21:47.484Z</time>
      </trkpt>
      <trkpt lat="45.014075" lon="6.089416">
        <ele>1655.770992</ele>
        <time>2026-01-24T21:22:40.342Z</time>
      </trkpt>
      <trkpt lat="45.013850" lon="6.089784">
        <ele>1657.288127</ele>
        <time>2026-01-24T21:23:02.972Z</time>
      </trkpt>
      <trkpt lat="45.013723" lon="6.089897">
        <ele>1658.172402</ele>
        <time>2026-01-24T21:23:13.406Z</time>
      </trkpt>
      <trkpt lat="45.013381" lon="6.090023">
        <ele>1660.255328</ele>
        <time>2026-01-24T21:23:39.339Z</time>
      </trkpt>
      <trkpt lat="45.013309" lon="6.090221">
        <ele>1661.183052</ele>
        <time>2026-01-24T21:23:51.693Z</time>
      </trkpt>
      <trkpt lat="45.013296" lon="6.090430">
        <ele>1662.057231</ele>
        <time>2026-01-24T21:24:03.858Z</time>
      </trkpt>
      <trkpt lat="45.013235" lon="6.090623">
        <ele>1662.938091</ele>
        <time>2026-01-24T21:24:16.388Z</time>
      </trkpt>
      <trkpt lat="45.013133" lon="6.090784">
        <ele>1663.838870</ele>
        <time>2026-01-24T21:24:29.102Z</time>
      </trkpt>
      <trkpt lat="45.012630" lon="6.091377">
        <ele>1667.942349</ele>
        <time>2026-01-24T21:25:21.515Z</time>
      </trkpt>
      <trkpt lat="45.012486" lon="6.091527">
        <ele>1669.172762</ele>
        <time>2026-01-24T21:25:34.916Z</time>
      </trkpt>
      <trkpt lat="45.012405" lon="6.091541">
        <ele>1669.734208</ele>
        <time>2026-01-24T21:25:40.853Z</time>
      </trkpt>
      <trkpt lat="45.012291" lon="6.091793">
        <ele>1671.189416</ele>
        <time>2026-01-24T21:25:55.472Z</time>
      </trkpt>
      <trkpt lat="45.012281" lon="6.091938">
        <ele>1671.898048</ele>
        <time>2026-01-24T21:26:02.477Z</time>
      </trkpt>
      <trkpt lat="45.012300" lon="6.092136">
        <ele>1672.869958</ele>
        <time>2026-01-24T21:26:12.125Z</time>
      </trkpt>
      <trkpt lat="45.012414" lon="6.092528">
        <ele>1674.931681</ele>
        <time>2026-01-24T21:26:33.163Z</time>
      </trkpt>
      <trkpt lat="45.012566" lon="6.093204">
        <ele>1678.382061</ele>
        <time>2026-01-24T21:27:11.611Z</time>
      </trkpt>
      <trkpt lat="45.012596" lon="6.093386">
        <ele>1679.855844</ele>
        <time>2026-01-24T21:27:23.241Z</time>
      </trkpt>
      <trkpt lat="45.012575" lon="6.093644">
        <ele>1682.172557</ele>
        <time>2026-01-24T21:27:40.902Z</time>
      </trkpt>
      <trkpt lat="45.012699" lon="6.094295">
        <ele>1688.186945</ele>
        <time>2026-01-24T21:28:31.636Z</time>
      </trkpt>
      <trkpt lat="45.012638" lon="6.094724">
        <ele>1692.090509</ele>
        <time>2026-01-24T21:29:07.132Z</time>
      </trkpt>
      <trkpt lat="45.012649" lon="6.094883">
        <ele>1693.515655</ele>
        <time>2026-01-24T21:29:20.426Z</time>
      </trkpt>
      <trkpt lat="45.012610" lon="6.095087">
        <ele>1695.400817</ele>
        <time>2026-01-24T21:29:37.850Z</time>
      </trkpt>
      <trkpt lat="45.012651" lon="6.095307">
        <ele>1697.430389</ele>
        <time>2026-01-24T21:29:56.107Z</time>
      </trkpt>
      <trkpt lat="45.012928" lon="6.095838">
        <ele>1701.926565</ele>
        <time>2026-01-24T21:30:43.932Z</time>
      </trkpt>
      <trkpt lat="45.013133" lon="6.095980">
        <ele>1702.811514</ele>
        <time>2026-01-24T21:31:03.849Z</time>
      </trkpt>
      <trkpt lat="45.013231" lon="6.096082">
        <ele>1703.283222</ele>
        <time>2026-01-24T21:31:13.337Z</time>
      </trkpt>
      <trkpt lat="45.013635" lon="6.096818">
        <ele>1705.837113</ele>
        <time>2026-01-24T21:31:54.832Z</time>
      </trkpt>
      <trkpt lat="45.013752" lon="6.096988">
        <ele>1706.487378</ele>
        <time>2026-01-24T21:32:04.565Z</time>
      </trkpt>
      <trkpt lat="45.013942" lon="6.097105">
        <ele>1707.290767</ele>
        <time>2026-01-24T21:32:16.306Z</time>
      </trkpt>
      <trkpt lat="45.014025" lon="6.097226">
        <ele>1707.752855</ele>
        <time>2026-01-24T21:32:22.900Z</time>
      </trkpt>
      <trkpt lat="45.014066" lon="6.097369">
        <ele>1708.175787</ele>
        <time>2026-01-24T21:32:28.872Z</time>
      </trkpt>
      <trkpt lat="45.014069" lon="6.097471">
        <ele>1708.141805</ele>
        <time>2026-01-24T21:32:32.807Z</time>
      </trkpt>
      <trkpt lat="45.013881" lon="6.097887">
        <ele>1707.034181</ele>
        <time>2026-01-24T21:32:51.527Z</time>
      </trkpt>
      <trkpt lat="45.013697" lon="6.098206">
        <ele>1706.110571</ele>
        <time>2026-01-24T21:33:06.665Z</time>
      </trkpt>
      <trkpt lat="45.013578" lon="6.098509">
        <ele>1705.332983</ele>
        <time>2026-01-24T21:33:19.180Z</time>
      </trkpt>
      <trkpt lat="45.013570" lon="6.098658">
        <ele>1704.997761</ele>
        <time>2026-01-24T21:33:24.620Z</time>
      </trkpt>
      <trkpt lat="45.013610" lon="6.098752">
        <ele>1704.751630</ele>
        <time>2026-01-24T21:33:28.668Z</time>
      </trkpt>
      <trkpt lat="45.013618" lon="6.098962">
        <ele>1704.279842</ele>
        <time>2026-01-24T21:33:36.621Z</time>
      </trkpt>
      <trkpt lat="45.013762" lon="6.099327">
        <ele>1703.342141</ele>
        <time>2026-01-24T21:33:52.708Z</time>
      </trkpt>
      <trkpt lat="45.013838" lon="6.099826">
        <ele>1701.030543</ele>
        <time>2026-01-24T21:34:12.405Z</time>
      </trkpt>
      <trkpt lat="45.013933" lon="6.100202">
        <ele>1697.372861</ele>
        <time>2026-01-24T21:34:26.628Z</time>
      </trkpt>
      <trkpt lat="45.014065" lon="6.100887">
        <ele>1690.869053</ele>
        <time>2026-01-24T21:34:49.848Z</time>
      </trkpt>
      <trkpt lat="45.014028" lon="6.100990">
        <ele>1689.810709</ele>
        <time>2026-01-24T21:34:53.516Z</time>
      </trkpt>
      <trkpt lat="45.014039" lon="6.101037">
        <ele>1689.357190</ele>
        <time>2026-01-24T21:34:55.087Z</time>
      </trkpt>
      <trkpt lat="45.014131" lon="6.101139">
        <ele>1687.842531</ele>
        <time>2026-01-24T21:35:00.295Z</time>
      </trkpt>
      <trkpt lat="45.015135" lon="6.101878">
        <ele>1668.367987</ele>
        <time>2026-01-24T21:35:49.998Z</time>
      </trkpt>
      <trkpt lat="45.015562" lon="6.101999">
        <ele>1658.270330</ele>
        <time>2026-01-24T21:36:10.402Z</time>
      </trkpt>
      <trkpt lat="45.015721" lon="6.102007">
        <ele>1654.581226</ele>
        <time>2026-01-24T21:36:17.760Z</time>
      </trkpt>
      <trkpt lat="45.015751" lon="6.102025">
        <ele>1653.825623</ele>
        <time>2026-01-24T21:36:19.285Z</time>
      </trkpt>
      <trkpt lat="45.015810" lon="6.102160">
        <ele>1651.224051</ele>
        <time>2026-01-24T21:36:24.362Z</time>
      </trkpt>
      <trkpt lat="45.015863" lon="6.102197">
        <ele>1649.853623</ele>
        <time>2026-01-24T21:36:27.047Z</time>
      </trkpt>
      <trkpt lat="45.015922" lon="6.102178">
        <ele>1648.450574</ele>
        <time>2026-01-24T21:36:29.750Z</time>
      </trkpt>
      <trkpt lat="45.016178" lon="6.101950">
        <ele>1641.436155</ele>
        <time>2026-01-24T21:36:43.098Z</time>
      </trkpt>
      <trkpt lat="45.016586" lon="6.101966">
        <ele>1633.513012</ele>
        <time>2026-01-24T21:37:01.044Z</time>
      </trkpt>
      <trkpt lat="45.016730" lon="6.101865">
        <ele>1630.813296</ele>
        <time>2026-01-24T21:37:08.160Z</time>
      </trkpt>
      <trkpt lat="45.017355" lon="6.101682">
        <ele>1620.092797</ele>
        <time>2026-01-24T21:37:36.496Z</time>
      </trkpt>
      <trkpt lat="45.017556" lon="6.101763">
        <ele>1616.582330</ele>
        <time>2026-01-24T21:37:45.793Z</time>
      </trkpt>
      <trkpt lat="45.017759" lon="6.101741">
        <ele>1613.162592</ele>
        <time>2026-01-24T21:37:54.869Z</time>
      </trkpt>
      <trkpt lat="45.017860" lon="6.101776">
        <ele>1611.415960</ele>
        <time>2026-01-24T21:37:59.485Z</time>
      </trkpt>
      <trkpt lat="45.018321" lon="6.101781">
        <ele>1603.700590</ele>
        <time>2026-01-24T21:38:20.049Z</time>
      </trkpt>
      <trkpt lat="45.019355" lon="6.101898">
        <ele>1586.410668</ele>
        <time>2026-01-24T21:39:05.954Z</time>
      </trkpt>
      <trkpt lat="45.019669" lon="6.101877">
        <ele>1581.171020</ele>
        <time>2026-01-24T21:39:19.890Z</time>
      </trkpt>
      <trkpt lat="45.019941" lon="6.101769">
        <ele>1576.589467</ele>
        <time>2026-01-24T21:39:32.354Z</time>
      </trkpt>
      <trkpt lat="45.020116" lon="6.101806">
        <ele>1574.053175</ele>
        <time>2026-01-24T21:39:40.185Z</time>
      </trkpt>
      <trkpt lat="45.020147" lon="6.101862">
        <ele>1573.332492</ele>
        <time>2026-01-24T21:39:42.097Z</time>
      </trkpt>
      <trkpt lat="45.020473" lon="6.101979">
        <ele>1568.511618</ele>
        <time>2026-01-24T21:39:54.735Z</time>
      </trkpt>
      <trkpt lat="45.020871" lon="6.102169">
        <ele>1562.490680</ele>
        <time>2026-01-24T21:40:10.598Z</time>
      </trkpt>
      <trkpt lat="45.020969" lon="6.102184">
        <ele>1561.077761</ele>
        <time>2026-01-24T21:40:14.358Z</time>
      </trkpt>
      <trkpt lat="45.021074" lon="6.102157">
        <ele>1559.548042</ele>
        <time>2026-01-24T21:40:18.443Z</time>
      </trkpt>
      <trkpt lat="45.021263" lon="6.102243">
        <ele>1556.702256</ele>
        <time>2026-01-24T21:40:25.966Z</time>
      </trkpt>
      <trkpt lat="45.021377" lon="6.102090">
        <ele>1554.449881</ele>
        <time>2026-01-24T21:40:31.906Z</time>
      </trkpt>
      <trkpt lat="45.021604" lon="6.101910">
        <ele>1550.802541</ele>
        <time>2026-01-24T21:40:41.765Z</time>
      </trkpt>
      <trkpt lat="45.021876" lon="6.101826">
        <ele>1547.191142</ele>
        <time>2026-01-24T21:40:54.208Z</time>
      </trkpt>
      <trkpt lat="45.022124" lon="6.101810">
        <ele>1543.970805</ele>
        <time>2026-01-24T21:41:05.275Z</time>
      </trkpt>
      <trkpt lat="45.022224" lon="6.101692">
        <ele>1542.281656</ele>
        <time>2026-01-24T21:41:11.099Z</time>
      </trkpt>
      <trkpt lat="45.022437" lon="6.101599">
        <ele>1539.390087</ele>
        <time>2026-01-24T21:41:21.021Z</time>
      </trkpt>
      <trkpt lat="45.022528" lon="6.101611">
        <ele>1538.204541</ele>
        <time>2026-01-24T21:41:25.136Z</time>
      </trkpt>
      <trkpt lat="45.022668" lon="6.101453">
        <ele>1535.881470</ele>
        <time>2026-01-24T21:41:33.099Z</time>
      </trkpt>
      <trkpt lat="45.022863" lon="6.101339">
        <ele>1533.144528</ele>
        <time>2026-01-24T21:41:42.511Z</time>
      </trkpt>
      <trkpt lat="45.023153" lon="6.101100">
        <ele>1528.791012</ele>
        <time>2026-01-24T21:41:57.521Z</time>
      </trkpt>
      <trkpt lat="45.023760" lon="6.100853">
        <ele>1523.720004</ele>
        <time>2026-01-24T21:42:26.641Z</time>
      </trkpt>
      <trkpt lat="45.024067" lon="6.100872">
        <ele>1521.358417</ele>
        <time>2026-01-24T21:42:41.450Z</time>
      </trkpt>
      <trkpt lat="45.024547" lon="6.101041">
        <ele>1517.557055</ele>
        <time>2026-01-24T21:43:06.300Z</time>
      </trkpt>
      <trkpt lat="45.024780" lon="6.101036">
        <ele>1515.766217</ele>
        <time>2026-01-24T21:43:18.287Z</time>
      </trkpt>
      <trkpt lat="45.025055" lon="6.100958">
        <ele>1513.558889</ele>
        <time>2026-01-24T21:43:32.344Z</time>
      </trkpt>
      <trkpt lat="45.025735" lon="6.100969">
        <ele>1508.004050</ele>
        <time>2026-01-24T21:44:05.861Z</time>
      </trkpt>
      <trkpt lat="45.025876" lon="6.100741">
        <ele>1506.255001</ele>
        <time>2026-01-24T21:44:15.530Z</time>
      </trkpt>
      <trkpt lat="45.026141" lon="6.100521">
        <ele>1503.745271</ele>
        <time>2026-01-24T21:44:30.152Z</time>
      </trkpt>
      <trkpt lat="45.026285" lon="6.100577">
        <ele>1502.525406</ele>
        <time>2026-01-24T21:44:37.065Z</time>
      </trkpt>
      <trkpt lat="45.026395" lon="6.100690">
        <ele>1501.415033</ele>
        <time>2026-01-24T21:44:43.332Z</time>
      </trkpt>
      <trkpt lat="45.026372" lon="6.100503">
        <ele>1500.319213</ele>
        <time>2026-01-24T21:44:48.483Z</time>
      </trkpt>
      <trkpt lat="45.026382" lon="6.100430">
        <ele>1499.889924</ele>
        <time>2026-01-24T21:44:50.490Z</time>
      </trkpt>
      <trkpt lat="45.026486" lon="6.100203">
        <ele>1497.643015</ele>
        <time>2026-01-24T21:44:57.735Z</time>
      </trkpt>
      <trkpt lat="45.026559" lon="6.100335">
        <ele>1496.207069</ele>
        <time>2026-01-24T21:45:03.105Z</time>
      </trkpt>
      <trkpt lat="45.026686" lon="6.100449">
        <ele>1494.383933</ele>
        <time>2026-01-24T21:45:10.090Z</time>
      </trkpt>
      <trkpt lat="45.026699" lon="6.100539">
        <ele>1493.596934</ele>
        <time>2026-01-24T21:45:13.200Z</time>
      </trkpt>
      <trkpt lat="45.026818" lon="6.100548">
        <ele>1492.152392</ele>
        <time>2026-01-24T21:45:18.636Z</time>
      </trkpt>
      <trkpt lat="45.026871" lon="6.100445">
        <ele>1491.060865</ele>
        <time>2026-01-24T21:45:22.874Z</time>
      </trkpt>
      <trkpt lat="45.026864" lon="6.100346">
        <ele>1490.208467</ele>
        <time>2026-01-24T21:45:26.007Z</time>
      </trkpt>
      <trkpt lat="45.026770" lon="6.100188">
        <ele>1488.439100</ele>
        <time>2026-01-24T21:45:32.544Z</time>
      </trkpt>
      <trkpt lat="45.026776" lon="6.100152">
        <ele>1488.122217</ele>
        <time>2026-01-24T21:45:33.725Z</time>
      </trkpt>
      <trkpt lat="45.026818" lon="6.100144">
        <ele>1487.608513</ele>
        <time>2026-01-24T21:45:35.607Z</time>
      </trkpt>
      <trkpt lat="45.027153" lon="6.100305">
        <ele>1483.319874</ele>
        <time>2026-01-24T21:45:51.509Z</time>
      </trkpt>
      <trkpt lat="45.027247" lon="6.100439">
        <ele>1481.702388</ele>
        <time>2026-01-24T21:45:57.488Z</time>
      </trkpt>
      <trkpt lat="45.027430" lon="6.100546">
        <ele>1479.302168</ele>
        <time>2026-01-24T21:46:06.304Z</time>
      </trkpt>
      <trkpt lat="45.027454" lon="6.100521">
        <ele>1478.940908</ele>
        <time>2026-01-24T21:46:07.626Z</time>
      </trkpt>
      <trkpt lat="45.027450" lon="6.100460">
        <ele>1478.416063</ele>
        <time>2026-01-24T21:46:09.525Z</time>
      </trkpt>
      <trkpt lat="45.027386" lon="6.100348">
        <ele>1476.823639</ele>
        <time>2026-01-24T21:46:14.036Z</time>
      </trkpt>
      <trkpt lat="45.027335" lon="6.100155">
        <ele>1474.224564</ele>
        <time>2026-01-24T21:46:20.502Z</time>
      </trkpt>
      <trkpt lat="45.027267" lon="6.099874">
        <ele>1470.478043</ele>
        <time>2026-01-24T21:46:29.787Z</time>
      </trkpt>
      <trkpt lat="45.027273" lon="6.099767">
        <ele>1469.124112</ele>
        <time>2026-01-24T21:46:33.153Z</time>
      </trkpt>
      <trkpt lat="45.027321" lon="6.099704">
        <ele>1467.955612</ele>
        <time>2026-01-24T21:46:36.062Z</time>
      </trkpt>
      <trkpt lat="45.027453" lon="6.099699">
        <ele>1465.598927</ele>
        <time>2026-01-24T21:46:41.886Z</time>
      </trkpt>
      <trkpt lat="45.027657" lon="6.099854">
        <ele>1461.466330</ele>
        <time>2026-01-24T21:46:52.104Z</time>
      </trkpt>
      <trkpt lat="45.027733" lon="6.100009">
        <ele>1459.086753</ele>
        <time>2026-01-24T21:46:57.974Z</time>
      </trkpt>
      <trkpt lat="45.027813" lon="6.100014">
        <ele>1457.657578</ele>
        <time>2026-01-24T21:47:01.488Z</time>
      </trkpt>
      <trkpt lat="45.027925" lon="6.099714">
        <ele>1453.377943</ele>
        <time>2026-01-24T21:47:12.067Z</time>
      </trkpt>
      <trkpt lat="45.027856" lon="6.099578">
        <ele>1451.266225</ele>
        <time>2026-01-24T21:47:17.299Z</time>
      </trkpt>
      <trkpt lat="45.027753" lon="6.099249">
        <ele>1446.727364</ele>
        <time>2026-01-24T21:47:28.494Z</time>
      </trkpt>
      <trkpt lat="45.027832" lon="6.099184">
        <ele>1445.259957</ele>
        <time>2026-01-24T21:47:32.556Z</time>
      </trkpt>
      <trkpt lat="45.028071" lon="6.099465">
        <ele>1440.933586</ele>
        <time>2026-01-24T21:47:46.273Z</time>
      </trkpt>
      <trkpt lat="45.028207" lon="6.099367">
        <ele>1438.808710</ele>
        <time>2026-01-24T21:47:53.022Z</time>
      </trkpt>
      <trkpt lat="45.028273" lon="6.099226">
        <ele>1437.144591</ele>
        <time>2026-01-24T21:47:58.309Z</time>
      </trkpt>
      <trkpt lat="45.028180" lon="6.098931">
        <ele>1433.966145</ele>
        <time>2026-01-24T21:48:08.443Z</time>
      </trkpt>
      <trkpt lat="45.027826" lon="6.098471">
        <ele>1427.274449</ele>
        <time>2026-01-24T21:48:29.969Z</time>
      </trkpt>
      <trkpt lat="45.027727" lon="6.098376">
        <ele>1425.609025</ele>
        <time>2026-01-24T21:48:35.457Z</time>
      </trkpt>
      <trkpt lat="45.027851" lon="6.098158">
        <ele>1422.855496</ele>
        <time>2026-01-24T21:48:44.633Z</time>
      </trkpt>
      <trkpt lat="45.027820" lon="6.097973">
        <ele>1420.984643</ele>
        <time>2026-01-24T21:48:50.901Z</time>
      </trkpt>
      <trkpt lat="45.028043" lon="6.098102">
        <ele>1419.995795</ele>
        <time>2026-01-24T21:49:02.315Z</time>
      </trkpt>
      <trkpt lat="45.028181" lon="6.098272">
        <ele>1419.350272</ele>
        <time>2026-01-24T21:49:11.080Z</time>
      </trkpt>
      <trkpt lat="45.028284" lon="6.098349">
        <ele>1418.939294</ele>
        <time>2026-01-24T21:49:16.788Z</time>
      </trkpt>
      <trkpt lat="45.028426" lon="6.098635">
        <ele>1418.067806</ele>
        <time>2026-01-24T21:49:29.111Z</time>
      </trkpt>
      <trkpt lat="45.028621" lon="6.098922">
        <ele>1417.075156</ele>
        <time>2026-01-24T21:49:44.117Z</time>
      </trkpt>
      <trkpt lat="45.029004" lon="6.099335">
        <ele>1415.376291</ele>
        <time>2026-01-24T21:50:11.373Z</time>
      </trkpt>
      <trkpt lat="45.029197" lon="6.099630">
        <ele>1414.489835</ele>
        <time>2026-01-24T21:50:27.896Z</time>
      </trkpt>
      <trkpt lat="45.029242" lon="6.100038">
        <ele>1414.967776</ele>
        <time>2026-01-24T21:50:45.964Z</time>
      </trkpt>
      <trkpt lat="45.029235" lon="6.100888">
        <ele>1415.951646</ele>
        <time>2026-01-24T21:51:25.421Z</time>
      </trkpt>
      <trkpt lat="45.029320" lon="6.101312">
        <ele>1416.461751</ele>
        <time>2026-01-24T21:51:45.570Z</time>
      </trkpt>
      <trkpt lat="45.029656" lon="6.102028">
        <ele>1417.296366</ele>
        <time>2026-01-24T21:52:20.870Z</time>
      </trkpt>
      <trkpt lat="45.030120" lon="6.102645">
        <ele>1415.450988</ele>
        <time>2026-01-24T21:52:55.743Z</time>
      </trkpt>
      <trkpt lat="45.030272" lon="6.102768">
        <ele>1414.943518</ele>
        <time>2026-01-24T21:53:05.273Z</time>
      </trkpt>
      <trkpt lat="45.030383" lon="6.102707">
        <ele>1414.598413</ele>
        <time>2026-01-24T21:53:11.865Z</time>
      </trkpt>
      <trkpt lat="45.030533" lon="6.102860">
        <ele>1414.062513</ele>
        <time>2026-01-24T21:53:21.856Z</time>
      </trkpt>
      <trkpt lat="45.031003" lon="6.103959">
        <ele>1409.848583</ele>
        <time>2026-01-24T21:54:07.838Z</time>
      </trkpt>
      <trkpt lat="45.031170" lon="6.104222">
        <ele>1407.605062</ele>
        <time>2026-01-24T21:54:19.783Z</time>
      </trkpt>
      <trkpt lat="45.031817" lon="6.104547">
        <ele>1401.440665</ele>
        <time>2026-01-24T21:54:51.220Z</time>
      </trkpt>
      <trkpt lat="45.032107" lon="6.104791">
        <ele>1398.411310</ele>
        <time>2026-01-24T21:55:06.342Z</time>
      </trkpt>
      <trkpt lat="45.032302" lon="6.105040">
        <ele>1396.052963</ele>
        <time>2026-01-24T21:55:18.137Z</time>
      </trkpt>
      <trkpt lat="45.032660" lon="6.105646">
        <ele>1392.115896</ele>
        <time>2026-01-24T21:55:44.580Z</time>
      </trkpt>
      <trkpt lat="45.032901" lon="6.105821">
        <ele>1390.207017</ele>
        <time>2026-01-24T21:55:58.203Z</time>
      </trkpt>
      <trkpt lat="45.033151" lon="6.105928">
        <ele>1388.366455</ele>
        <time>2026-01-24T21:56:11.614Z</time>
      </trkpt>
      <trkpt lat="45.033437" lon="6.106132">
        <ele>1386.109450</ele>
        <time>2026-01-24T21:56:27.933Z</time>
      </trkpt>
      <trkpt lat="45.033547" lon="6.106309">
        <ele>1384.935626</ele>
        <time>2026-01-24T21:56:36.256Z</time>
      </trkpt>
      <trkpt lat="45.033593" lon="6.106476">
        <ele>1384.043020</ele>
        <time>2026-01-24T21:56:42.508Z</time>
      </trkpt>
      <trkpt lat="45.033784" lon="6.107264">
        <ele>1378.552155</ele>
        <time>2026-01-24T21:57:10.798Z</time>
      </trkpt>
      <trkpt lat="45.033803" lon="6.108036">
        <ele>1373.216064</ele>
        <time>2026-01-24T21:57:35.862Z</time>
      </trkpt>
      <trkpt lat="45.033835" lon="6.109023">
        <ele>1366.390850</ele>
        <time>2026-01-24T21:58:07.209Z</time>
      </trkpt>
      <trkpt lat="45.033767" lon="6.109418">
        <ele>1363.150464</ele>
        <time>2026-01-24T21:58:20.070Z</time>
      </trkpt>
      <trkpt lat="45.033640" lon="6.109919">
        <ele>1358.750909</ele>
        <time>2026-01-24T21:58:36.953Z</time>
      </trkpt>
      <trkpt lat="45.033646" lon="6.110295">
        <ele>1355.642153</ele>
        <time>2026-01-24T21:58:48.868Z</time>
      </trkpt>
      <trkpt lat="45.034118" lon="6.111588">
        <ele>1343.690833</ele>
        <time>2026-01-24T21:59:35.013Z</time>
      </trkpt>
      <trkpt lat="45.034169" lon="6.112041">
        <ele>1340.161357</ele>
        <time>2026-01-24T21:59:49.536Z</time>
      </trkpt>
      <trkpt lat="45.034281" lon="6.112709">
        <ele>1334.878886</ele>
        <time>2026-01-24T22:00:11.251Z</time>
      </trkpt>
      <trkpt lat="45.034343" lon="6.113315">
        <ele>1330.167537</ele>
        <time>2026-01-24T22:00:30.908Z</time>
      </trkpt>
      <trkpt lat="45.034488" lon="6.113983">
        <ele>1324.935611</ele>
        <time>2026-01-24T22:00:53.799Z</time>
      </trkpt>
      <trkpt lat="45.034577" lon="6.114057">
        <ele>1324.254338</ele>
        <time>2026-01-24T22:00:57.827Z</time>
      </trkpt>
      <trkpt lat="45.034495" lon="6.114202">
        <ele>1323.388183</ele>
        <time>2026-01-24T22:01:02.317Z</time>
      </trkpt>
      <trkpt lat="45.034474" lon="6.114320">
        <ele>1322.820654</ele>
        <time>2026-01-24T22:01:05.315Z</time>
      </trkpt>
      <trkpt lat="45.034554" lon="6.115317">
        <ele>1318.140817</ele>
        <time>2026-01-24T22:01:34.690Z</time>
      </trkpt>
      <trkpt lat="45.034556" lon="6.116301">
        <ele>1313.551476</ele>
        <time>2026-01-24T22:02:05.040Z</time>
      </trkpt>
      <trkpt lat="45.034379" lon="6.117066">
        <ele>1310.154307</ele>
        <time>2026-01-24T22:02:28.979Z</time>
      </trkpt>
      <trkpt lat="45.034349" lon="6.117373">
        <ele>1308.856727</ele>
        <time>2026-01-24T22:02:38.008Z</time>
      </trkpt>
      <trkpt lat="45.034370" lon="6.117545">
        <ele>1308.125928</ele>
        <time>2026-01-24T22:02:43.099Z</time>
      </trkpt>
      <trkpt lat="45.034350" lon="6.118832">
        <ele>1302.736204</ele>
        <time>2026-01-24T22:03:15.507Z</time>
      </trkpt>
      <trkpt lat="45.034320" lon="6.118952">
        <ele>1302.373688</ele>
        <time>2026-01-24T22:03:18.682Z</time>
      </trkpt>
      <trkpt lat="45.034235" lon="6.119301">
        <ele>1301.442997</ele>
        <time>2026-01-24T22:03:28.050Z</time>
      </trkpt>
      <trkpt lat="45.033651" lon="6.121604">
        <ele>1294.936719</ele>
        <time>2026-01-24T22:04:34.842Z</time>
      </trkpt>
      <trkpt lat="45.033553" lon="6.122187">
        <ele>1292.883834</ele>
        <time>2026-01-24T22:04:50.138Z</time>
      </trkpt>
      <trkpt lat="45.033476" lon="6.122212">
        <ele>1292.500880</ele>
        <time>2026-01-24T22:04:52.971Z</time>
      </trkpt>
      <trkpt lat="45.033513" lon="6.122483">
        <ele>1291.555355</ele>
        <time>2026-01-24T22:04:59.777Z</time>
      </trkpt>
      <trkpt lat="45.033505" lon="6.122648">
        <ele>1290.988790</ele>
        <time>2026-01-24T22:05:03.882Z</time>
      </trkpt>
      <trkpt lat="45.033375" lon="6.123309">
        <ele>1288.638365</ele>
        <time>2026-01-24T22:05:21.124Z</time>
      </trkpt>
      <trkpt lat="45.033295" lon="6.123588">
        <ele>1287.606921</ele>
        <time>2026-01-24T22:05:28.968Z</time>
      </trkpt>
      <trkpt lat="45.033159" lon="6.123889">
        <ele>1287.361401</ele>
        <time>2026-01-24T22:05:38.511Z</time>
      </trkpt>
      <trkpt lat="45.032997" lon="6.124067">
        <ele>1287.241294</ele>
        <time>2026-01-24T22:05:46.514Z</time>
      </trkpt>
      <trkpt lat="45.032905" lon="6.124122">
        <ele>1287.182809</ele>
        <time>2026-01-24T22:05:50.507Z</time>
      </trkpt>
      <trkpt lat="45.032126" lon="6.124425">
        <ele>1286.709714</ele>
        <time>2026-01-24T22:06:25.833Z</time>
      </trkpt>
      <trkpt lat="45.032059" lon="6.124468">
        <ele>1286.666633</ele>
        <time>2026-01-24T22:06:29.152Z</time>
      </trkpt>
      <trkpt lat="45.031969" lon="6.124620">
        <ele>1286.584569</ele>
        <time>2026-01-24T22:06:35.456Z</time>
      </trkpt>
      <trkpt lat="45.031947" lon="6.124714">
        <ele>1286.543590</ele>
        <time>2026-01-24T22:06:38.547Z</time>
      </trkpt>
      <trkpt lat="45.031950" lon="6.124903">
        <ele>1286.465353</ele>
        <time>2026-01-24T22:06:44.274Z</time>
      </trkpt>
      <trkpt lat="45.032191" lon="6.125412">
        <ele>1284.463816</ele>
        <time>2026-01-24T22:07:01.380Z</time>
      </trkpt>
      <trkpt lat="45.032213" lon="6.125527">
        <ele>1284.041032</ele>
        <time>2026-01-24T22:07:04.551Z</time>
      </trkpt>
      <trkpt lat="45.032685" lon="6.126248">
        <ele>1280.553385</ele>
        <time>2026-01-24T22:07:29.056Z</time>
      </trkpt>
      <trkpt lat="45.032772" lon="6.126326">
        <ele>1280.036217</ele>
        <time>2026-01-24T22:07:32.586Z</time>
      </trkpt>
      <trkpt lat="45.033198" lon="6.126533">
        <ele>1277.774494</ele>
        <time>2026-01-24T22:07:48.114Z</time>
      </trkpt>
      <trkpt lat="45.033470" lon="6.126754">
        <ele>1276.563186</ele>
        <time>2026-01-24T22:07:59.207Z</time>
      </trkpt>
      <trkpt lat="45.033508" lon="6.126797">
        <ele>1276.392212</ele>
        <time>2026-01-24T22:08:00.939Z</time>
      </trkpt>
      <trkpt lat="45.033536" lon="6.126829">
        <ele>1276.265740</ele>
        <time>2026-01-24T22:08:02.234Z</time>
      </trkpt>
      <trkpt lat="45.033675" lon="6.126957">
        <ele>1275.682984</ele>
        <time>2026-01-24T22:08:08.263Z</time>
      </trkpt>
      <trkpt lat="45.034097" lon="6.127250">
        <ele>1274.031221</ele>
        <time>2026-01-24T22:08:25.842Z</time>
      </trkpt>
      <trkpt lat="45.034436" lon="6.127706">
        <ele>1272.387676</ele>
        <time>2026-01-24T22:08:44.056Z</time>
      </trkpt>
      <trkpt lat="45.034896" lon="6.128440">
        <ele>1271.038821</ele>
        <time>2026-01-24T22:09:12.045Z</time>
      </trkpt>
      <trkpt lat="45.035353" lon="6.128987">
        <ele>1270.943289</ele>
        <time>2026-01-24T22:09:37.226Z</time>
      </trkpt>
      <trkpt lat="45.035482" lon="6.129183">
        <ele>1270.913080</ele>
        <time>2026-01-24T22:09:45.365Z</time>
      </trkpt>
      <trkpt lat="45.035617" lon="6.129437">
        <ele>1270.877234</ele>
        <time>2026-01-24T22:09:54.782Z</time>
      </trkpt>
      <trkpt lat="45.035741" lon="6.129811">
        <ele>1270.830640</ele>
        <time>2026-01-24T22:10:06.743Z</time>
      </trkpt>
      <trkpt lat="45.035852" lon="6.129981">
        <ele>1270.804535</ele>
        <time>2026-01-24T22:10:13.322Z</time>
      </trkpt>
      <trkpt lat="45.036082" lon="6.130252">
        <ele>1269.122113</ele>
        <time>2026-01-24T22:10:25.334Z</time>
      </trkpt>
      <trkpt lat="45.036191" lon="6.131034">
        <ele>1265.886878</ele>
        <time>2026-01-24T22:10:46.590Z</time>
      </trkpt>
      <trkpt lat="45.036258" lon="6.131279">
        <ele>1264.820577</ele>
        <time>2026-01-24T22:10:53.170Z</time>
      </trkpt>
      <trkpt lat="45.036282" lon="6.131394">
        <ele>1264.333872</ele>
        <time>2026-01-24T22:10:56.081Z</time>
      </trkpt>
      <trkpt lat="45.036412" lon="6.131801">
        <ele>1262.520980</ele>
        <time>2026-01-24T22:11:06.718Z</time>
      </trkpt>
      <trkpt lat="45.036442" lon="6.131899">
        <ele>1262.087488</ele>
        <time>2026-01-24T22:11:09.258Z</time>
      </trkpt>
      <trkpt lat="45.036509" lon="6.131916">
        <ele>1261.696516</ele>
        <time>2026-01-24T22:11:11.476Z</time>
      </trkpt>
      <trkpt lat="45.036547" lon="6.132015">
        <ele>1261.239233</ele>
        <time>2026-01-24T22:11:14.144Z</time>
      </trkpt>
      <trkpt lat="45.036641" lon="6.132169">
        <ele>1260.342087</ele>
        <time>2026-01-24T22:11:18.904Z</time>
      </trkpt>
      <trkpt lat="45.036755" lon="6.132211">
        <ele>1258.851404</ele>
        <time>2026-01-24T22:11:22.762Z</time>
      </trkpt>
      <trkpt lat="45.036791" lon="6.132220">
        <ele>1258.388793</ele>
        <time>2026-01-24T22:11:23.981Z</time>
      </trkpt>
      <trkpt lat="45.036973" lon="6.132175">
        <ele>1256.050813</ele>
        <time>2026-01-24T22:11:30.060Z</time>
      </trkpt>
      <trkpt lat="45.037071" lon="6.132115">
        <ele>1254.699600</ele>
        <time>2026-01-24T22:11:33.559Z</time>
      </trkpt>
      <trkpt lat="45.037989" lon="6.131982">
        <ele>1243.022193</ele>
        <time>2026-01-24T22:12:03.295Z</time>
      </trkpt>
      <trkpt lat="45.038176" lon="6.131979">
        <ele>1240.655679</ele>
        <time>2026-01-24T22:12:09.290Z</time>
      </trkpt>
      <trkpt lat="45.038789" lon="6.132085">
        <ele>1231.150908</ele>
        <time>2026-01-24T22:12:29.030Z</time>
      </trkpt>
      <trkpt lat="45.038871" lon="6.132211">
        <ele>1229.087769</ele>
        <time>2026-01-24T22:12:34.417Z</time>
      </trkpt>
      <trkpt lat="45.039235" lon="6.132524">
        <ele>1221.827941</ele>
        <time>2026-01-24T22:12:53.285Z</time>
      </trkpt>
      <trkpt lat="45.039513" lon="6.132630">
        <ele>1216.920517</ele>
        <time>2026-01-24T22:13:06.025Z</time>
      </trkpt>
      <trkpt lat="45.040571" lon="6.132809">
        <ele>1196.395563</ele>
        <time>2026-01-24T22:13:53.040Z</time>
      </trkpt>
      <trkpt lat="45.040871" lon="6.132950">
        <ele>1189.472617</ele>
        <time>2026-01-24T22:14:06.971Z</time>
      </trkpt>
      <trkpt lat="45.041043" lon="6.133115">
        <ele>1184.921926</ele>
        <time>2026-01-24T22:14:16.080Z</time>
      </trkpt>
      <trkpt lat="45.041123" lon="6.133198">
        <ele>1182.749531</ele>
        <time>2026-01-24T22:14:20.443Z</time>
      </trkpt>
      <trkpt lat="45.041370" lon="6.133296">
        <ele>1177.131588</ele>
        <time>2026-01-24T22:14:31.947Z</time>
      </trkpt>
      <trkpt lat="45.041577" lon="6.133291">
        <ele>1172.597556</ele>
        <time>2026-01-24T22:14:41.370Z</time>
      </trkpt>
      <trkpt lat="45.041635" lon="6.133322">
        <ele>1171.239770</ele>
        <time>2026-01-24T22:14:44.249Z</time>
      </trkpt>
      <trkpt lat="45.041514" lon="6.133485">
        <ele>1167.571757</ele>
        <time>2026-01-24T22:14:51.949Z</time>
      </trkpt>
      <trkpt lat="45.041557" lon="6.133540">
        <ele>1166.155167</ele>
        <time>2026-01-24T22:14:54.592Z</time>
      </trkpt>
      <trkpt lat="45.041674" lon="6.133564">
        <ele>1163.265687</ele>
        <time>2026-01-24T22:15:00.069Z</time>
      </trkpt>
      <trkpt lat="45.041731" lon="6.133851">
        <ele>1158.117180</ele>
        <time>2026-01-24T22:15:09.635Z</time>
      </trkpt>
      <trkpt lat="45.041511" lon="6.133984">
        <ele>1152.270122</ele>
        <time>2026-01-24T22:15:20.474Z</time>
      </trkpt>
      <trkpt lat="45.041470" lon="6.134061">
        <ele>1150.605044</ele>
        <time>2026-01-24T22:15:23.549Z</time>
      </trkpt>
      <trkpt lat="45.041477" lon="6.134146">
        <ele>1149.127166</ele>
        <time>2026-01-24T22:15:26.353Z</time>
      </trkpt>
      <trkpt lat="45.041652" lon="6.134204">
        <ele>1144.734268</ele>
        <time>2026-01-24T22:15:34.545Z</time>
      </trkpt>
      <trkpt lat="45.041752" lon="6.134197">
        <ele>1142.287179</ele>
        <time>2026-01-24T22:15:39.130Z</time>
      </trkpt>
      <trkpt lat="45.041860" lon="6.134323">
        <ele>1138.866273</ele>
        <time>2026-01-24T22:15:45.493Z</time>
      </trkpt>
      <trkpt lat="45.042038" lon="6.134366">
        <ele>1134.452850</ele>
        <time>2026-01-24T22:15:53.654Z</time>
      </trkpt>
      <trkpt lat="45.042060" lon="6.134447">
        <ele>1132.954218</ele>
        <time>2026-01-24T22:15:56.394Z</time>
      </trkpt>
      <trkpt lat="45.042028" lon="6.134520">
        <ele>1131.470628</ele>
        <time>2026-01-24T22:15:59.132Z</time>
      </trkpt>
      <trkpt lat="45.041846" lon="6.134535">
        <ele>1127.014827</ele>
        <time>2026-01-24T22:16:07.239Z</time>
      </trkpt>
      <trkpt lat="45.041824" lon="6.134546">
        <ele>1126.444554</ele>
        <time>2026-01-24T22:16:08.264Z</time>
      </trkpt>
      <trkpt lat="45.041817" lon="6.134600">
        <ele>1125.496421</ele>
        <time>2026-01-24T22:16:09.972Z</time>
      </trkpt>
      <trkpt lat="45.041945" lon="6.134753">
        <ele>1121.791183</ele>
        <time>2026-01-24T22:16:17.370Z</time>
      </trkpt>
      <trkpt lat="45.042227" lon="6.134862">
        <ele>1115.856395</ele>
        <time>2026-01-24T22:16:30.184Z</time>
      </trkpt>
      <trkpt lat="45.042291" lon="6.134940">
        <ele>1114.141702</ele>
        <time>2026-01-24T22:16:33.907Z</time>
      </trkpt>
      <trkpt lat="45.042332" lon="6.135045">
        <ele>1112.420790</ele>
        <time>2026-01-24T22:16:37.614Z</time>
      </trkpt>
      <trkpt lat="45.042340" lon="6.135108">
        <ele>1111.502581</ele>
        <time>2026-01-24T22:16:39.602Z</time>
      </trkpt>
      <trkpt lat="45.042252" lon="6.135174">
        <ele>1109.480662</ele>
        <time>2026-01-24T22:16:43.979Z</time>
      </trkpt>
      <trkpt lat="45.041773" lon="6.135178">
        <ele>1099.755930</ele>
        <time>2026-01-24T22:17:05.020Z</time>
      </trkpt>
      <trkpt lat="45.041645" lon="6.135234">
        <ele>1097.035964</ele>
        <time>2026-01-24T22:17:10.914Z</time>
      </trkpt>
      <trkpt lat="45.041599" lon="6.135385">
        <ele>1094.677114</ele>
        <time>2026-01-24T22:17:16.052Z</time>
      </trkpt>
      <trkpt lat="45.041613" lon="6.135542">
        <ele>1092.407067</ele>
        <time>2026-01-24T22:17:20.977Z</time>
      </trkpt>
      <trkpt lat="45.041866" lon="6.135624">
        <ele>1087.155623</ele>
        <time>2026-01-24T22:17:32.452Z</time>
      </trkpt>
      <trkpt lat="45.041957" lon="6.135699">
        <ele>1085.793175</ele>
        <time>2026-01-24T22:17:37.122Z</time>
      </trkpt>
      <trkpt lat="45.041645" lon="6.135878">
        <ele>1081.437454</ele>
        <time>2026-01-24T22:17:52.060Z</time>
      </trkpt>
      <trkpt lat="45.041555" lon="6.136001">
        <ele>1079.818733</ele>
        <time>2026-01-24T22:17:57.642Z</time>
      </trkpt>
      <trkpt lat="45.041545" lon="6.136064">
        <ele>1079.228440</ele>
        <time>2026-01-24T22:17:59.666Z</time>
      </trkpt>
      <trkpt lat="45.041316" lon="6.136137">
        <ele>1076.191414</ele>
        <time>2026-01-24T22:18:07.211Z</time>
      </trkpt>
      <trkpt lat="45.041161" lon="6.136123">
        <ele>1074.181948</ele>
        <time>2026-01-24T22:18:12.204Z</time>
      </trkpt>
      <trkpt lat="45.041044" lon="6.136173">
        <ele>1072.600697</ele>
        <time>2026-01-24T22:18:16.146Z</time>
      </trkpt>
      <trkpt lat="45.040630" lon="6.136255">
        <ele>1067.192172</ele>
        <time>2026-01-24T22:18:29.923Z</time>
      </trkpt>
      <trkpt lat="45.040596" lon="6.136347">
        <ele>1066.243014</ele>
        <time>2026-01-24T22:18:32.305Z</time>
      </trkpt>
      <trkpt lat="45.040730" lon="6.136448">
        <ele>1064.278774</ele>
        <time>2026-01-24T22:18:37.263Z</time>
      </trkpt>
      <trkpt lat="45.040994" lon="6.136471">
        <ele>1062.541815</ele>
        <time>2026-01-24T22:18:46.226Z</time>
      </trkpt>
      <trkpt lat="45.041334" lon="6.136456">
        <ele>1060.564755</ele>
        <time>2026-01-24T22:18:58.013Z</time>
      </trkpt>
      <trkpt lat="45.041375" lon="6.136502">
        <ele>1060.260663</ele>
        <time>2026-01-24T22:18:59.853Z</time>
      </trkpt>
      <trkpt lat="45.041351" lon="6.136595">
        <ele>1059.854057</ele>
        <time>2026-01-24T22:19:02.292Z</time>
      </trkpt>
      <trkpt lat="45.041318" lon="6.136602">
        <ele>1059.660117</ele>
        <time>2026-01-24T22:19:03.530Z</time>
      </trkpt>
      <trkpt lat="45.041237" lon="6.136624">
        <ele>1059.180749</ele>
        <time>2026-01-24T22:19:06.486Z</time>
      </trkpt>
      <trkpt lat="45.041327" lon="6.136756">
        <ele>1058.427432</ele>
        <time>2026-01-24T22:19:11.992Z</time>
      </trkpt>
      <trkpt lat="45.041405" lon="6.136822">
        <ele>1057.899242</ele>
        <time>2026-01-24T22:19:15.908Z</time>
      </trkpt>
      <trkpt lat="45.041621" lon="6.136658">
        <ele>1056.474582</ele>
        <time>2026-01-24T22:19:26.531Z</time>
      </trkpt>
      <trkpt lat="45.041970" lon="6.136473">
        <ele>1054.308558</ele>
        <time>2026-01-24T22:19:43.000Z</time>
      </trkpt>
      <trkpt lat="45.042323" lon="6.136395">
        <ele>1052.589367</ele>
        <time>2026-01-24T22:19:59.056Z</time>
      </trkpt>
      <trkpt lat="45.042964" lon="6.136375">
        <ele>1049.945145</ele>
        <time>2026-01-24T22:20:29.143Z</time>
      </trkpt>
      <trkpt lat="45.043420" lon="6.136117">
        <ele>1047.919824</ele>
        <time>2026-01-24T22:20:50.980Z</time>
      </trkpt>
      <trkpt lat="45.043598" lon="6.135964">
        <ele>1047.060943</ele>
        <time>2026-01-24T22:20:59.864Z</time>
      </trkpt>
      <trkpt lat="45.044190" lon="6.136029">
        <ele>1042.271925</ele>
        <time>2026-01-24T22:21:23.773Z</time>
      </trkpt>
      <trkpt lat="45.044336" lon="6.136006">
        <ele>1040.676311</ele>
        <time>2026-01-24T22:21:29.328Z</time>
      </trkpt>
      <trkpt lat="45.044396" lon="6.135927">
        <ele>1039.786197</ele>
        <time>2026-01-24T22:21:32.529Z</time>
      </trkpt>
      <trkpt lat="45.044503" lon="6.135989">
        <ele>1038.530356</ele>
        <time>2026-01-24T22:21:36.244Z</time>
      </trkpt>
      <trkpt lat="45.044559" lon="6.135941">
        <ele>1037.819244</ele>
        <time>2026-01-24T22:21:38.410Z</time>
      </trkpt>
      <trkpt lat="45.044932" lon="6.136420">
        <ele>1032.348632</ele>
        <time>2026-01-24T22:21:54.643Z</time>
      </trkpt>
      <trkpt lat="45.045066" lon="6.136449">
        <ele>1030.876236</ele>
        <time>2026-01-24T22:21:59.033Z</time>
      </trkpt>
      <trkpt lat="45.045062" lon="6.136612">
        <ele>1029.624555</ele>
        <time>2026-01-24T22:22:02.778Z</time>
      </trkpt>
      <trkpt lat="45.045086" lon="6.136935">
        <ele>1027.132055</ele>
        <time>2026-01-24T22:22:10.143Z</time>
      </trkpt>
      <trkpt lat="45.045154" lon="6.137180">
        <ele>1025.981923</ele>
        <time>2026-01-24T22:22:16.142Z</time>
      </trkpt>
      <trkpt lat="45.045296" lon="6.137446">
        <ele>1025.017677</ele>
        <time>2026-01-24T22:22:23.744Z</time>
      </trkpt>
      <trkpt lat="45.045477" lon="6.137646">
        <ele>1024.077691</ele>
        <time>2026-01-24T22:22:31.265Z</time>
      </trkpt>
      <trkpt lat="45.045635" lon="6.137757">
        <ele>1023.355624</ele>
        <time>2026-01-24T22:22:37.160Z</time>
      </trkpt>
      <trkpt lat="45.045798" lon="6.137828">
        <ele>1022.657498</ele>
        <time>2026-01-24T22:22:43.006Z</time>
      </trkpt>
      <trkpt lat="45.046861" lon="6.138025">
        <ele>1022.566858</ele>
        <time>2026-01-24T22:23:29.652Z</time>
      </trkpt>
      <trkpt lat="45.047124" lon="6.138063">
        <ele>1026.791948</ele>
        <time>2026-01-24T22:23:47.545Z</time>
      </trkpt>
      <trkpt lat="45.047168" lon="6.138077">
        <ele>1027.512703</ele>
        <time>2026-01-24T22:23:51.976Z</time>
      </trkpt>
      <trkpt lat="45.047172" lon="6.138227">
        <ele>1029.207651</ele>
        <time>2026-01-24T22:24:00.840Z</time>
      </trkpt>
      <trkpt lat="45.047332" lon="6.138052">
        <ele>1032.439291</ele>
        <time>2026-01-24T22:24:25.660Z</time>
      </trkpt>
      <trkpt lat="45.047354" lon="6.138097">
        <ele>1033.057200</ele>
        <time>2026-01-24T22:24:30.012Z</time>
      </trkpt>
      <trkpt lat="45.047382" lon="6.138705">
        <ele>1039.937050</ele>
        <time>2026-01-24T22:25:33.604Z</time>
      </trkpt>
      <trkpt lat="45.047399" lon="6.138757">
        <ele>1040.584024</ele>
        <time>2026-01-24T22:25:39.725Z</time>
      </trkpt>
      <trkpt lat="45.047488" lon="6.138829">
        <ele>1042.222363</ele>
        <time>2026-01-24T22:25:57.449Z</time>
      </trkpt>
      <trkpt lat="45.047475" lon="6.138638">
        <ele>1044.389035</ele>
        <time>2026-01-24T22:26:13.093Z</time>
      </trkpt>
      <trkpt lat="45.047491" lon="6.138566">
        <ele>1045.241293</ele>
        <time>2026-01-24T22:26:19.099Z</time>
      </trkpt>
      <trkpt lat="45.047519" lon="6.138528">
        <ele>1045.861260</ele>
        <time>2026-01-24T22:26:23.250Z</time>
      </trkpt>
      <trkpt lat="45.047587" lon="6.138529">
        <ele>1046.948090</ele>
        <time>2026-01-24T22:26:31.524Z</time>
      </trkpt>
      <trkpt lat="45.047626" lon="6.138587">
        <ele>1047.852193</ele>
        <time>2026-01-24T22:26:37.707Z</time>
      </trkpt>
      <trkpt lat="45.047667" lon="6.138994">
        <ele>1054.942030</ele>
        <time>2026-01-24T22:27:09.041Z</time>
      </trkpt>
      <trkpt lat="45.047877" lon="6.139421">
        <ele>1063.940350</ele>
        <time>2026-01-24T22:27:48.995Z</time>
      </trkpt>
      <trkpt lat="45.047943" lon="6.139869">
        <ele>1071.855430</ele>
        <time>2026-01-24T22:28:26.421Z</time>
      </trkpt>
      <trkpt lat="45.047994" lon="6.139792">
        <ele>1073.680888</ele>
        <time>2026-01-24T22:28:39.640Z</time>
      </trkpt>
      <trkpt lat="45.047998" lon="6.139161">
        <ele>1084.594825</ele>
        <time>2026-01-24T22:29:54.424Z</time>
      </trkpt>
      <trkpt lat="45.048003" lon="6.139132">
        <ele>1085.111115</ele>
        <time>2026-01-24T22:29:58.329Z</time>
      </trkpt>
      <trkpt lat="45.048053" lon="6.139120">
        <ele>1086.352593</ele>
        <time>2026-01-24T22:30:07.167Z</time>
      </trkpt>
      <trkpt lat="45.048509" lon="6.139320">
        <ele>1097.350474</ele>
        <time>2026-01-24T22:31:32.263Z</time>
      </trkpt>
      <trkpt lat="45.048555" lon="6.139418">
        <ele>1099.156289</ele>
        <time>2026-01-24T22:31:47.086Z</time>
      </trkpt>
      <trkpt lat="45.048571" lon="6.139698">
        <ele>1103.467795</ele>
        <time>2026-01-24T22:32:19.030Z</time>
      </trkpt>
      <trkpt lat="45.048602" lon="6.139776">
        <ele>1104.841367</ele>
        <time>2026-01-24T22:32:28.887Z</time>
      </trkpt>
      <trkpt lat="45.048672" lon="6.139900">
        <ele>1107.277447</ele>
        <time>2026-01-24T22:32:46.589Z</time>
      </trkpt>
      <trkpt lat="45.048855" lon="6.139990">
        <ele>1111.486069</ele>
        <time>2026-01-24T22:33:18.118Z</time>
      </trkpt>
      <trkpt lat="45.048959" lon="6.140223">
        <ele>1115.716058</ele>
        <time>2026-01-24T22:33:39.583Z</time>
      </trkpt>
      <trkpt lat="45.048897" lon="6.140904">
        <ele>1126.254483</ele>
        <time>2026-01-24T22:34:21.845Z</time>
      </trkpt>
      <trkpt lat="45.048907" lon="6.141091">
        <ele>1129.132774</ele>
        <time>2026-01-24T22:34:32.500Z</time>
      </trkpt>
      <trkpt lat="45.049036" lon="6.140681">
        <ele>1135.369885</ele>
        <time>2026-01-24T22:34:59.352Z</time>
      </trkpt>
      <trkpt lat="45.049017" lon="6.140938">
        <ele>1138.821814</ele>
        <time>2026-01-24T22:35:15.109Z</time>
      </trkpt>
      <trkpt lat="45.049024" lon="6.141039">
        <ele>1140.177519</ele>
        <time>2026-01-24T22:35:21.468Z</time>
      </trkpt>
      <trkpt lat="45.049183" lon="6.141596">
        <ele>1148.202711</ele>
        <time>2026-01-24T22:36:01.728Z</time>
      </trkpt>
      <trkpt lat="45.049270" lon="6.141742">
        <ele>1150.754180</ele>
        <time>2026-01-24T22:36:16.108Z</time>
      </trkpt>
      <trkpt lat="45.049438" lon="6.141912">
        <ele>1154.659043</ele>
        <time>2026-01-24T22:36:47.709Z</time>
      </trkpt>
      <trkpt lat="45.049526" lon="6.141928">
        <ele>1156.336639</ele>
        <time>2026-01-24T22:36:59.949Z</time>
      </trkpt>
      <trkpt lat="45.049580" lon="6.141978">
        <ele>1157.556745</ele>
        <time>2026-01-24T22:37:09.273Z</time>
      </trkpt>
      <trkpt lat="45.049701" lon="6.142171">
        <ele>1161.003712</ele>
        <time>2026-01-24T22:37:27.671Z</time>
      </trkpt>
      <trkpt lat="45.049810" lon="6.142343">
        <ele>1164.090292</ele>
        <time>2026-01-24T22:37:44.064Z</time>
      </trkpt>
      <trkpt lat="45.049815" lon="6.142351">
        <ele>1164.232976</ele>
        <time>2026-01-24T22:37:44.818Z</time>
      </trkpt>
      <trkpt lat="45.049868" lon="6.142447">
        <ele>1165.757120</ele>
        <time>2026-01-24T22:37:53.165Z</time>
      </trkpt>
      <trkpt lat="45.049983" lon="6.142704">
        <ele>1169.329877</ele>
        <time>2026-01-24T22:38:12.729Z</time>
      </trkpt>
      <trkpt lat="45.050064" lon="6.142735">
        <ele>1170.724726</ele>
        <time>2026-01-24T22:38:20.333Z</time>
      </trkpt>
      <trkpt lat="45.050075" lon="6.142740">
        <ele>1170.916781</ele>
        <time>2026-01-24T22:38:21.501Z</time>
      </trkpt>
      <trkpt lat="45.050151" lon="6.142772">
        <ele>1172.234872</ele>
        <time>2026-01-24T22:38:28.292Z</time>
      </trkpt>
      <trkpt lat="45.050154" lon="6.142946">
        <ele>1174.278978</ele>
        <time>2026-01-24T22:38:38.212Z</time>
      </trkpt>
      <trkpt lat="45.050210" lon="6.143116">
        <ele>1176.481860</ele>
        <time>2026-01-24T22:38:48.015Z</time>
      </trkpt>
      <trkpt lat="45.050192" lon="6.143185">
        <ele>1177.345691</ele>
        <time>2026-01-24T22:38:51.289Z</time>
      </trkpt>
      <trkpt lat="45.050106" lon="6.143503">
        <ele>1181.344633</ele>
        <time>2026-01-24T22:39:11.765Z</time>
      </trkpt>
      <trkpt lat="45.049921" lon="6.143910">
        <ele>1187.028406</ele>
        <time>2026-01-24T22:39:48.843Z</time>
      </trkpt>
      <trkpt lat="45.049567" lon="6.144441">
        <ele>1195.834587</ele>
        <time>2026-01-24T22:40:56.205Z</time>
      </trkpt>
      <trkpt lat="45.049491" lon="6.144818">
        <ele>1201.967237</ele>
        <time>2026-01-24T22:41:35.354Z</time>
      </trkpt>
      <trkpt lat="45.049663" lon="6.145094">
        <ele>1207.724201</ele>
        <time>2026-01-24T22:42:18.272Z</time>
      </trkpt>
      <trkpt lat="45.049672" lon="6.145188">
        <ele>1209.208046</ele>
        <time>2026-01-24T22:42:31.425Z</time>
      </trkpt>
      <trkpt lat="45.049640" lon="6.145378">
        <ele>1212.263424</ele>
        <time>2026-01-24T22:42:56.947Z</time>
      </trkpt>
      <trkpt lat="45.049522" lon="6.145411">
        <ele>1214.926590</ele>
        <time>2026-01-24T22:43:19.444Z</time>
      </trkpt>
      <trkpt lat="45.049259" lon="6.145713">
        <ele>1222.424977</ele>
        <time>2026-01-24T22:44:23.057Z</time>
      </trkpt>
      <trkpt lat="45.049107" lon="6.145928">
        <ele>1227.182847</ele>
        <time>2026-01-24T22:44:59.951Z</time>
      </trkpt>
      <trkpt lat="45.049000" lon="6.145933">
        <ele>1229.553243</ele>
        <time>2026-01-24T22:45:17.030Z</time>
      </trkpt>
      <trkpt lat="45.048979" lon="6.145965">
        <ele>1230.236443</ele>
        <time>2026-01-24T22:45:20.550Z</time>
      </trkpt>
      <trkpt lat="45.049037" lon="6.146038">
        <ele>1231.954909</ele>
        <time>2026-01-24T22:45:29.164Z</time>
      </trkpt>
      <trkpt lat="45.048903" lon="6.146041">
        <ele>1234.825145</ele>
        <time>2026-01-24T22:45:40.995Z</time>
      </trkpt>
      <trkpt lat="45.048981" lon="6.146177">
        <ele>1236.191966</ele>
        <time>2026-01-24T22:45:50.249Z</time>
      </trkpt>
      <trkpt lat="45.048839" lon="6.146167">
        <ele>1237.762190</ele>
        <time>2026-01-24T22:46:03.369Z</time>
      </trkpt>
      <trkpt lat="45.048892" lon="6.146290">
        <ele>1238.886352</ele>
        <time>2026-01-24T22:46:12.286Z</time>
      </trkpt>
      <trkpt lat="45.048820" lon="6.146259">
        <ele>1239.717514</ele>
        <time>2026-01-24T22:46:18.919Z</time>
      </trkpt>
      <trkpt lat="45.048695" lon="6.146295">
        <ele>1241.126333</ele>
        <time>2026-01-24T22:46:29.773Z</time>
      </trkpt>
      <trkpt lat="45.048462" lon="6.146279">
        <ele>1243.702671</ele>
        <time>2026-01-24T22:46:54.139Z</time>
      </trkpt>
      <trkpt lat="45.048223" lon="6.146310">
        <ele>1246.353307</ele>
        <time>2026-01-24T22:47:15.711Z</time>
      </trkpt>
      <trkpt lat="45.048192" lon="6.146415">
        <ele>1247.241269</ele>
        <time>2026-01-24T22:47:22.462Z</time>
      </trkpt>
      <trkpt lat="45.048152" lon="6.146468">
        <ele>1247.846403</ele>
        <time>2026-01-24T22:47:26.317Z</time>
      </trkpt>
      <trkpt lat="45.048160" lon="6.146489">
        <ele>1248.032567</ele>
        <time>2026-01-24T22:47:28.114Z</time>
      </trkpt>
      <trkpt lat="45.048277" lon="6.146501">
        <ele>1249.328132</ele>
        <time>2026-01-24T22:47:36.750Z</time>
      </trkpt>
      <trkpt lat="45.048340" lon="6.146550">
        <ele>1250.122050</ele>
        <time>2026-01-24T22:47:44.149Z</time>
      </trkpt>
      <trkpt lat="45.048252" lon="6.146607">
        <ele>1251.190878</ele>
        <time>2026-01-24T22:47:48.551Z</time>
      </trkpt>
      <trkpt lat="45.048192" lon="6.146706">
        <ele>1252.208644</ele>
        <time>2026-01-24T22:47:54.740Z</time>
      </trkpt>
      <trkpt lat="45.048060" lon="6.147032">
        <ele>1254.948264</ele>
        <time>2026-01-24T22:48:12.086Z</time>
      </trkpt>
      <trkpt lat="45.047977" lon="6.147105">
        <ele>1255.648372</ele>
        <time>2026-01-24T22:48:17.363Z</time>
      </trkpt>
      <trkpt lat="45.047878" lon="6.147125">
        <ele>1256.364846</ele>
        <time>2026-01-24T22:48:25.091Z</time>
      </trkpt>
      <trkpt lat="45.047841" lon="6.147175">
        <ele>1256.731351</ele>
        <time>2026-01-24T22:48:28.438Z</time>
      </trkpt>
      <trkpt lat="45.047832" lon="6.147290">
        <ele>1257.317021</ele>
        <time>2026-01-24T22:48:36.000Z</time>
      </trkpt>
      <trkpt lat="45.047825" lon="6.147473">
        <ele>1258.244693</ele>
        <time>2026-01-24T22:48:49.792Z</time>
      </trkpt>
      <trkpt lat="45.048118" lon="6.148760">
        <ele>1265.089115</ele>
        <time>2026-01-24T22:49:56.567Z</time>
      </trkpt>
      <trkpt lat="45.048121" lon="6.148996">
        <ele>1266.283895</ele>
        <time>2026-01-24T22:50:04.738Z</time>
      </trkpt>
      <trkpt lat="45.047961" lon="6.149125">
        <ele>1267.476968</ele>
        <time>2026-01-24T22:50:13.554Z</time>
      </trkpt>
      <trkpt lat="45.047619" lon="6.149388">
        <ele>1267.417810</ele>
        <time>2026-01-24T22:50:31.416Z</time>
      </trkpt>
      <trkpt lat="45.047527" lon="6.149481">
        <ele>1267.400627</ele>
        <time>2026-01-24T22:50:36.397Z</time>
      </trkpt>
      <trkpt lat="45.047466" lon="6.149601">
        <ele>1267.384752</ele>
        <time>2026-01-24T22:50:41.149Z</time>
      </trkpt>
      <trkpt lat="45.047254" lon="6.150389">
        <ele>1267.294206</ele>
        <time>2026-01-24T22:51:04.165Z</time>
      </trkpt>
      <trkpt lat="45.047194" lon="6.150834">
        <ele>1267.245557</ele>
        <time>2026-01-24T22:51:17.251Z</time>
      </trkpt>
      <trkpt lat="45.047218" lon="6.150893">
        <ele>1267.238246</ele>
        <time>2026-01-24T22:51:19.370Z</time>
      </trkpt>
      <trkpt lat="45.047261" lon="6.150914">
        <ele>1267.231333</ele>
        <time>2026-01-24T22:51:21.667Z</time>
      </trkpt>
      <trkpt lat="45.047288" lon="6.151015">
        <ele>1267.219736</ele>
        <time>2026-01-24T22:51:25.076Z</time>
      </trkpt>
      <trkpt lat="45.047549" lon="6.151577">
        <ele>1268.881818</ele>
        <time>2026-01-24T22:51:51.983Z</time>
      </trkpt>
      <trkpt lat="45.048141" lon="6.152901">
        <ele>1273.685028</ele>
        <time>2026-01-24T22:52:59.802Z</time>
      </trkpt>
      <trkpt lat="45.048306" lon="6.153366">
        <ele>1275.133125</ele>
        <time>2026-01-24T22:53:20.438Z</time>
      </trkpt>
      <trkpt lat="45.048644" lon="6.153650">
        <ele>1275.909395</ele>
        <time>2026-01-24T22:53:41.198Z</time>
      </trkpt>
      <trkpt lat="45.048809" lon="6.153990">
        <ele>1276.484921</ele>
        <time>2026-01-24T22:53:56.712Z</time>
      </trkpt>
      <trkpt lat="45.048733" lon="6.154346">
        <ele>1277.003818</ele>
        <time>2026-01-24T22:54:12.758Z</time>
      </trkpt>
      <trkpt lat="45.048799" lon="6.154856">
        <ele>1277.727245</ele>
        <time>2026-01-24T22:54:32.681Z</time>
      </trkpt>
      <trkpt lat="45.048867" lon="6.155182">
        <ele>1278.201513</ele>
        <time>2026-01-24T22:54:43.809Z</time>
      </trkpt>
      <trkpt lat="45.048949" lon="6.155310">
        <ele>1278.442595</ele>
        <time>2026-01-24T22:54:49.054Z</time>
      </trkpt>
      <trkpt lat="45.049022" lon="6.155365">
        <ele>1278.612884</ele>
        <time>2026-01-24T22:54:52.551Z</time>
      </trkpt>
      <trkpt lat="45.049297" lon="6.155358">
        <ele>1279.243108</ele>
        <time>2026-01-24T22:55:04.740Z</time>
      </trkpt>
      <trkpt lat="45.049460" lon="6.155455">
        <ele>1279.648266</ele>
        <time>2026-01-24T22:55:13.124Z</time>
      </trkpt>
      <trkpt lat="45.049264" lon="6.156138">
        <ele>1280.841661</ele>
        <time>2026-01-24T22:55:41.862Z</time>
      </trkpt>
      <trkpt lat="45.049274" lon="6.156277">
        <ele>1281.067843</ele>
        <time>2026-01-24T22:55:47.997Z</time>
      </trkpt>
      <trkpt lat="45.049292" lon="6.156315">
        <ele>1281.141906</ele>
        <time>2026-01-24T22:55:49.846Z</time>
      </trkpt>
      <trkpt lat="45.049671" lon="6.156717">
        <ele>1282.227108</ele>
        <time>2026-01-24T22:56:20.892Z</time>
      </trkpt>
      <trkpt lat="45.049831" lon="6.157457">
        <ele>1282.343250</ele>
        <time>2026-01-24T22:56:59.259Z</time>
      </trkpt>
      <trkpt lat="45.049806" lon="6.157545">
        <ele>1282.277580</ele>
        <time>2026-01-24T22:57:04.498Z</time>
      </trkpt>
      <trkpt lat="45.049678" lon="6.157582">
        <ele>1282.149550</ele>
        <time>2026-01-24T22:57:14.880Z</time>
      </trkpt>
      <trkpt lat="45.049570" lon="6.157679">
        <ele>1282.024199</ele>
        <time>2026-01-24T22:57:23.730Z</time>
      </trkpt>
      <trkpt lat="45.049525" lon="6.157775">
        <ele>1281.944431</ele>
        <time>2026-01-24T22:57:28.843Z</time>
      </trkpt>
      <trkpt lat="45.049508" lon="6.157995">
        <ele>1281.791201</ele>
        <time>2026-01-24T22:57:37.744Z</time>
      </trkpt>
      <trkpt lat="45.049463" lon="6.158091">
        <ele>1281.711433</ele>
        <time>2026-01-24T22:57:42.099Z</time>
      </trkpt>
      <trkpt lat="45.049313" lon="6.158118">
        <ele>1281.563248</ele>
        <time>2026-01-24T22:57:49.966Z</time>
      </trkpt>
      <trkpt lat="45.049139" lon="6.158040">
        <ele>1281.384378</ele>
        <time>2026-01-24T22:57:59.042Z</time>
      </trkpt>
      <trkpt lat="45.048879" lon="6.158094">
        <ele>1281.126847</ele>
        <time>2026-01-24T22:58:11.823Z</time>
      </trkpt>
      <trkpt lat="45.048713" lon="6.158019">
        <ele>1280.956078</ele>
        <time>2026-01-24T22:58:20.124Z</time>
      </trkpt>
      <trkpt lat="45.048469" lon="6.158013">
        <ele>1280.314226</ele>
        <time>2026-01-24T22:58:31.659Z</time>
      </trkpt>
      <trkpt lat="45.048137" lon="6.158056">
        <ele>1279.343011</ele>
        <time>2026-01-24T22:58:47.753Z</time>
      </trkpt>
      <trkpt lat="45.047542" lon="6.157965">
        <ele>1277.599583</ele>
        <time>2026-01-24T22:59:19.069Z</time>
      </trkpt>
      <trkpt lat="45.047140" lon="6.158191">
        <ele>1276.339488</ele>
        <time>2026-01-24T22:59:43.008Z</time>
      </trkpt>
      <trkpt lat="45.046844" lon="6.158513">
        <ele>1276.495381</ele>
        <time>2026-01-24T23:00:06.863Z</time>
      </trkpt>
      <trkpt lat="45.046655" lon="6.158813">
        <ele>1278.063886</ele>
        <time>2026-01-24T23:00:27.049Z</time>
      </trkpt>
      <trkpt lat="45.046457" lon="6.159059">
        <ele>1279.519044</ele>
        <time>2026-01-24T23:00:46.969Z</time>
      </trkpt>
      <trkpt lat="45.046436" lon="6.159088">
        <ele>1279.681093</ele>
        <time>2026-01-24T23:00:49.153Z</time>
      </trkpt>
      <trkpt lat="45.046430" lon="6.159190">
        <ele>1280.080507</ele>
        <time>2026-01-24T23:00:54.832Z</time>
      </trkpt>
      <trkpt lat="45.046638" lon="6.160272">
        <ele>1284.456310</ele>
        <time>2026-01-24T23:01:54.203Z</time>
      </trkpt>
      <trkpt lat="45.046728" lon="6.160665">
        <ele>1286.388433</ele>
        <time>2026-01-24T23:02:16.570Z</time>
      </trkpt>
      <trkpt lat="45.046864" lon="6.161094">
        <ele>1289.519618</ele>
        <time>2026-01-24T23:02:42.055Z</time>
      </trkpt>
      <trkpt lat="45.046863" lon="6.161227">
        <ele>1290.405338</ele>
        <time>2026-01-24T23:02:48.901Z</time>
      </trkpt>
      <trkpt lat="45.046914" lon="6.161359">
        <ele>1291.407195</ele>
        <time>2026-01-24T23:02:56.569Z</time>
      </trkpt>
      <trkpt lat="45.046960" lon="6.161610">
        <ele>1293.133960</ele>
        <time>2026-01-24T23:03:09.691Z</time>
      </trkpt>
      <trkpt lat="45.047099" lon="6.162025">
        <ele>1296.192321</ele>
        <time>2026-01-24T23:03:34.486Z</time>
      </trkpt>
      <trkpt lat="45.047137" lon="6.162238">
        <ele>1297.655239</ele>
        <time>2026-01-24T23:03:48.064Z</time>
      </trkpt>
      <trkpt lat="45.047311" lon="6.162871">
        <ele>1302.178259</ele>
        <time>2026-01-24T23:04:39.219Z</time>
      </trkpt>
      <trkpt lat="45.047401" lon="6.163115">
        <ele>1304.150268</ele>
        <time>2026-01-24T23:05:03.308Z</time>
      </trkpt>
      <trkpt lat="45.047601" lon="6.163435">
        <ele>1307.269503</ele>
        <time>2026-01-24T23:05:40.738Z</time>
      </trkpt>
      <trkpt lat="45.047932" lon="6.163774">
        <ele>1311.491467</ele>
        <time>2026-01-24T23:06:27.508Z</time>
      </trkpt>
      <trkpt lat="45.047997" lon="6.163995">
        <ele>1313.239184</ele>
        <time>2026-01-24T23:06:45.045Z</time>
      </trkpt>
      <trkpt lat="45.047930" lon="6.164107">
        <ele>1314.310622</ele>
        <time>2026-01-24T23:06:55.424Z</time>
      </trkpt>
      <trkpt lat="45.048024" lon="6.164289">
        <ele>1315.956567</ele>
        <time>2026-01-24T23:07:09.550Z</time>
      </trkpt>
      <trkpt lat="45.048021" lon="6.164336">
        <ele>1316.301105</ele>
        <time>2026-01-24T23:07:12.196Z</time>
      </trkpt>
      <trkpt lat="45.047975" lon="6.164396">
        <ele>1316.947513</ele>
        <time>2026-01-24T23:07:16.938Z</time>
      </trkpt>
      <trkpt lat="45.047541" lon="6.164571">
        <ele>1320.992527</ele>
        <time>2026-01-24T23:07:45.972Z</time>
      </trkpt>
      <trkpt lat="45.047314" lon="6.164630">
        <ele>1320.144780</ele>
        <time>2026-01-24T23:07:58.555Z</time>
      </trkpt>
      <trkpt lat="45.047265" lon="6.164694">
        <ele>1319.899870</ele>
        <time>2026-01-24T23:08:01.985Z</time>
      </trkpt>
      <trkpt lat="45.046976" lon="6.164866">
        <ele>1318.748299</ele>
        <time>2026-01-24T23:08:17.435Z</time>
      </trkpt>
      <trkpt lat="45.046906" lon="6.164959">
        <ele>1318.395650</ele>
        <time>2026-01-24T23:08:22.015Z</time>
      </trkpt>
      <trkpt lat="45.046791" lon="6.165032">
        <ele>1317.932699</ele>
        <time>2026-01-24T23:08:28.089Z</time>
      </trkpt>
      <trkpt lat="45.046562" lon="6.165278">
        <ele>1316.876710</ele>
        <time>2026-01-24T23:08:42.133Z</time>
      </trkpt>
      <trkpt lat="45.046264" lon="6.165756">
        <ele>1315.222319</ele>
        <time>2026-01-24T23:09:05.064Z</time>
      </trkpt>
      <trkpt lat="45.046247" lon="6.165844">
        <ele>1314.985557</ele>
        <time>2026-01-24T23:09:08.403Z</time>
      </trkpt>
      <trkpt lat="45.046251" lon="6.166190">
        <ele>1314.621405</ele>
        <time>2026-01-24T23:09:21.404Z</time>
      </trkpt>
      <trkpt lat="45.046176" lon="6.166446">
        <ele>1314.736123</ele>
        <time>2026-01-24T23:09:32.045Z</time>
      </trkpt>
      <trkpt lat="45.046011" lon="6.166721">
        <ele>1314.885464</ele>
        <time>2026-01-24T23:09:46.145Z</time>
      </trkpt>
      <trkpt lat="45.045977" lon="6.166875">
        <ele>1314.952251</ele>
        <time>2026-01-24T23:09:52.486Z</time>
      </trkpt>
      <trkpt lat="45.046007" lon="6.166936">
        <ele>1314.983016</ele>
        <time>2026-01-24T23:09:55.431Z</time>
      </trkpt>
      <trkpt lat="45.046051" lon="6.167213">
        <ele>1315.100540</ele>
        <time>2026-01-24T23:10:06.645Z</time>
      </trkpt>
      <trkpt lat="45.046243" lon="6.167392">
        <ele>1315.235238</ele>
        <time>2026-01-24T23:10:19.744Z</time>
      </trkpt>
      <trkpt lat="45.046361" lon="6.167651">
        <ele>1315.362805</ele>
        <time>2026-01-24T23:10:32.896Z</time>
      </trkpt>
      <trkpt lat="45.046423" lon="6.167847">
        <ele>1315.451698</ele>
        <time>2026-01-24T23:10:42.577Z</time>
      </trkpt>
      <trkpt lat="45.046525" lon="6.167957">
        <ele>1315.526827</ele>
        <time>2026-01-24T23:10:50.982Z</time>
      </trkpt>
      <trkpt lat="45.046565" lon="6.168099">
        <ele>1315.590106</ele>
        <time>2026-01-24T23:10:58.204Z</time>
      </trkpt>
      <trkpt lat="45.046777" lon="6.168572">
        <ele>1320.478972</ele>
        <time>2026-01-24T23:11:27.729Z</time>
      </trkpt>
      <trkpt lat="45.046824" lon="6.168743">
        <ele>1322.160935</ele>
        <time>2026-01-24T23:11:39.452Z</time>
      </trkpt>
      <trkpt lat="45.046892" lon="6.169571">
        <ele>1329.802167</ele>
        <time>2026-01-24T23:12:45.886Z</time>
      </trkpt>
      <trkpt lat="45.046929" lon="6.169763">
        <ele>1331.626489</ele>
        <time>2026-01-24T23:13:07.465Z</time>
      </trkpt>
      <trkpt lat="45.047016" lon="6.170000">
        <ele>1334.074761</ele>
        <time>2026-01-24T23:13:35.288Z</time>
      </trkpt>
      <trkpt lat="45.047275" lon="6.170406">
        <ele>1338.952275</ele>
        <time>2026-01-24T23:14:21.253Z</time>
      </trkpt>
      <trkpt lat="45.047375" lon="6.170475">
        <ele>1339.087313</ele>
        <time>2026-01-24T23:14:33.118Z</time>
      </trkpt>
      <trkpt lat="45.047539" lon="6.170502">
        <ele>1339.287722</ele>
        <time>2026-01-24T23:14:49.848Z</time>
      </trkpt>
      <trkpt lat="45.047753" lon="6.170640">
        <ele>1339.573170</ele>
        <time>2026-01-24T23:15:11.491Z</time>
      </trkpt>
      <trkpt lat="45.047712" lon="6.170746">
        <ele>1339.676805</ele>
        <time>2026-01-24T23:15:18.726Z</time>
      </trkpt>
      <trkpt lat="45.047555" lon="6.170788">
        <ele>1339.870749</ele>
        <time>2026-01-24T23:15:30.658Z</time>
      </trkpt>
      <trkpt lat="45.047405" lon="6.170950">
        <ele>1340.099774</ele>
        <time>2026-01-24T23:15:42.553Z</time>
      </trkpt>
      <trkpt lat="45.046850" lon="6.171168">
        <ele>1340.798907</ele>
        <time>2026-01-24T23:16:10.634Z</time>
      </trkpt>
      <trkpt lat="45.046740" lon="6.171263">
        <ele>1340.955321</ele>
        <time>2026-01-24T23:16:16.338Z</time>
      </trkpt>
      <trkpt lat="45.046459" lon="6.171380">
        <ele>1342.512269</ele>
        <time>2026-01-24T23:16:29.353Z</time>
      </trkpt>
      <trkpt lat="45.046292" lon="6.171553">
        <ele>1344.356355</ele>
        <time>2026-01-24T23:16:38.800Z</time>
      </trkpt>
      <trkpt lat="45.046187" lon="6.171755">
        <ele>1345.935183</ele>
        <time>2026-01-24T23:16:47.830Z</time>
      </trkpt>
      <trkpt lat="45.046081" lon="6.171887">
        <ele>1347.193262</ele>
        <time>2026-01-24T23:16:55.866Z</time>
      </trkpt>
      <trkpt lat="45.046001" lon="6.171896">
        <ele>1347.908365</ele>
        <time>2026-01-24T23:17:01.224Z</time>
      </trkpt>
      <trkpt lat="45.045919" lon="6.171962">
        <ele>1348.748927</ele>
        <time>2026-01-24T23:17:08.157Z</time>
      </trkpt>
      <trkpt lat="45.045795" lon="6.172155">
        <ele>1350.391267</ele>
        <time>2026-01-24T23:17:25.584Z</time>
      </trkpt>
      <trkpt lat="45.045756" lon="6.172261">
        <ele>1351.143680</ele>
        <time>2026-01-24T23:17:34.554Z</time>
      </trkpt>
      <trkpt lat="45.045766" lon="6.172324">
        <ele>1351.550200</ele>
        <time>2026-01-24T23:17:40.024Z</time>
      </trkpt>
      <trkpt lat="45.045832" lon="6.172452">
        <ele>1352.547834</ele>
        <time>2026-01-24T23:17:54.081Z</time>
      </trkpt>
      <trkpt lat="45.045821" lon="6.172645">
        <ele>1353.766864</ele>
        <time>2026-01-24T23:18:14.234Z</time>
      </trkpt>
      <trkpt lat="45.045912" lon="6.172831">
        <ele>1355.191216</ele>
        <time>2026-01-24T23:18:41.390Z</time>
      </trkpt>
      <trkpt lat="45.045850" lon="6.173194">
        <ele>1358.219229</ele>
        <time>2026-01-24T23:19:30.994Z</time>
      </trkpt>
      <trkpt lat="45.046004" lon="6.173584">
        <ele>1365.865456</ele>
        <time>2026-01-24T23:20:40.843Z</time>
      </trkpt>
      <trkpt lat="45.046048" lon="6.173921">
        <ele>1371.730600</ele>
        <time>2026-01-24T23:21:33.370Z</time>
      </trkpt>
      <trkpt lat="45.046059" lon="6.174199">
        <ele>1376.495808</ele>
        <time>2026-01-24T23:22:13.940Z</time>
      </trkpt>
      <trkpt lat="45.046016" lon="6.174278">
        <ele>1378.202513</ele>
        <time>2026-01-24T23:22:27.679Z</time>
      </trkpt>
      <trkpt lat="45.045901" lon="6.174300">
        <ele>1381.013447</ele>
        <time>2026-01-24T23:22:49.626Z</time>
      </trkpt>
      <trkpt lat="45.045890" lon="6.174327">
        <ele>1381.546849</ele>
        <time>2026-01-24T23:22:53.555Z</time>
      </trkpt>
      <trkpt lat="45.045927" lon="6.174450">
        <ele>1383.834751</ele>
        <time>2026-01-24T23:23:10.095Z</time>
      </trkpt>
      <trkpt lat="45.045925" lon="6.174526">
        <ele>1385.136336</ele>
        <time>2026-01-24T23:23:19.051Z</time>
      </trkpt>
      <trkpt lat="45.045868" lon="6.174722">
        <ele>1388.763770</ele>
        <time>2026-01-24T23:23:42.268Z</time>
      </trkpt>
      <trkpt lat="45.045741" lon="6.174823">
        <ele>1392.292415</ele>
        <time>2026-01-24T23:24:01.364Z</time>
      </trkpt>
      <trkpt lat="45.045743" lon="6.174982">
        <ele>1395.014021</ele>
        <time>2026-01-24T23:24:14.015Z</time>
      </trkpt>
      <trkpt lat="45.045687" lon="6.175140">
        <ele>1398.039242</ele>
        <time>2026-01-24T23:24:27.051Z</time>
      </trkpt>
      <trkpt lat="45.045698" lon="6.175287">
        <ele>1400.569118</ele>
        <time>2026-01-24T23:24:37.239Z</time>
      </trkpt>
      <trkpt lat="45.045666" lon="6.175442">
        <ele>1401.935685</ele>
        <time>2026-01-24T23:24:47.978Z</time>
      </trkpt>
      <trkpt lat="45.045400" lon="6.175353">
        <ele>1405.021116</ele>
        <time>2026-01-24T23:25:11.241Z</time>
      </trkpt>
      <trkpt lat="45.045269" lon="6.175266">
        <ele>1406.654579</ele>
        <time>2026-01-24T23:25:23.118Z</time>
      </trkpt>
      <trkpt lat="45.045235" lon="6.175292">
        <ele>1407.090817</ele>
        <time>2026-01-24T23:25:26.332Z</time>
      </trkpt>
      <trkpt lat="45.045230" lon="6.175393">
        <ele>1407.898336</ele>
        <time>2026-01-24T23:25:32.173Z</time>
      </trkpt>
      <trkpt lat="45.045186" lon="6.175462">
        <ele>1408.639651</ele>
        <time>2026-01-24T23:25:37.780Z</time>
      </trkpt>
      <trkpt lat="45.045057" lon="6.175474">
        <ele>1410.098974</ele>
        <time>2026-01-24T23:25:49.056Z</time>
      </trkpt>
      <trkpt lat="45.045006" lon="6.175520">
        <ele>1410.781641</ele>
        <time>2026-01-24T23:25:54.302Z</time>
      </trkpt>
      <trkpt lat="45.044984" lon="6.175521">
        <ele>1411.030110</ele>
        <time>2026-01-24T23:25:56.229Z</time>
      </trkpt>
      <trkpt lat="45.044903" lon="6.175365">
        <ele>1412.574161</ele>
        <time>2026-01-24T23:26:08.937Z</time>
      </trkpt>
      <trkpt lat="45.044768" lon="6.175326">
        <ele>1414.129494</ele>
        <time>2026-01-24T23:26:22.001Z</time>
      </trkpt>
      <trkpt lat="45.044518" lon="6.175346">
        <ele>1416.956057</ele>
        <time>2026-01-24T23:26:46.046Z</time>
      </trkpt>
      <trkpt lat="45.044403" lon="6.175422">
        <ele>1418.388751</ele>
        <time>2026-01-24T23:26:58.187Z</time>
      </trkpt>
      <trkpt lat="45.044160" lon="6.175796">
        <ele>1422.636253</ele>
        <time>2026-01-24T23:27:34.515Z</time>
      </trkpt>
      <trkpt lat="45.044036" lon="6.176099">
        <ele>1425.812318</ele>
        <time>2026-01-24T23:28:01.647Z</time>
      </trkpt>
      <trkpt lat="45.043987" lon="6.176448">
        <ele>1429.039806</ele>
        <time>2026-01-24T23:28:29.634Z</time>
      </trkpt>
      <trkpt lat="45.043930" lon="6.177233">
        <ele>1436.197634</ele>
        <time>2026-01-24T23:29:28.424Z</time>
      </trkpt>
      <trkpt lat="45.043889" lon="6.177296">
        <ele>1436.974534</ele>
        <time>2026-01-24T23:29:33.641Z</time>
      </trkpt>
      <trkpt lat="45.043885" lon="6.177378">
        <ele>1437.720085</ele>
        <time>2026-01-24T23:29:38.510Z</time>
      </trkpt>
      <trkpt lat="45.043832" lon="6.177491">
        <ele>1438.950320</ele>
        <time>2026-01-24T23:29:47.106Z</time>
      </trkpt>
      <trkpt lat="45.043674" lon="6.178207">
        <ele>1446.245879</ele>
        <time>2026-01-24T23:30:39.264Z</time>
      </trkpt>
      <trkpt lat="45.043608" lon="6.178361">
        <ele>1448.368169</ele>
        <time>2026-01-24T23:30:53.091Z</time>
      </trkpt>
      <trkpt lat="45.043464" lon="6.178041">
        <ele>1452.838501</ele>
        <time>2026-01-24T23:31:22.658Z</time>
      </trkpt>
      <trkpt lat="45.043428" lon="6.178121">
        <ele>1453.956086</ele>
        <time>2026-01-24T23:31:29.928Z</time>
      </trkpt>
      <trkpt lat="45.043426" lon="6.178233">
        <ele>1455.276207</ele>
        <time>2026-01-24T23:31:39.399Z</time>
      </trkpt>
      <trkpt lat="45.043503" lon="6.178492">
        <ele>1458.587155</ele>
        <time>2026-01-24T23:32:02.611Z</time>
      </trkpt>
      <trkpt lat="45.043384" lon="6.178678">
        <ele>1461.543758</ele>
        <time>2026-01-24T23:32:23.889Z</time>
      </trkpt>
      <trkpt lat="45.043416" lon="6.178865">
        <ele>1463.810887</ele>
        <time>2026-01-24T23:32:41.240Z</time>
      </trkpt>
      <trkpt lat="45.043539" lon="6.179278">
        <ele>1469.091905</ele>
        <time>2026-01-24T23:33:22.764Z</time>
      </trkpt>
      <trkpt lat="45.043526" lon="6.179394">
        <ele>1470.475821</ele>
        <time>2026-01-24T23:33:35.233Z</time>
      </trkpt>
      <trkpt lat="45.043400" lon="6.179673">
        <ele>1474.321013</ele>
        <time>2026-01-24T23:34:10.883Z</time>
      </trkpt>
      <trkpt lat="45.043424" lon="6.179750">
        <ele>1475.107479</ele>
        <time>2026-01-24T23:34:19.934Z</time>
      </trkpt>
      <trkpt lat="45.043540" lon="6.179890">
        <ele>1477.123767</ele>
        <time>2026-01-24T23:34:41.647Z</time>
      </trkpt>
      <trkpt lat="45.043704" lon="6.180185">
        <ele>1480.631543</ele>
        <time>2026-01-24T23:35:16.025Z</time>
      </trkpt>
      <trkpt lat="45.043779" lon="6.180453">
        <ele>1483.325276</ele>
        <time>2026-01-24T23:35:39.693Z</time>
      </trkpt>
      <trkpt lat="45.043787" lon="6.180710">
        <ele>1485.729256</ele>
        <time>2026-01-24T23:35:59.394Z</time>
      </trkpt>
      <trkpt lat="45.043862" lon="6.181046">
        <ele>1489.022114</ele>
        <time>2026-01-24T23:36:23.792Z</time>
      </trkpt>
      <trkpt lat="45.043822" lon="6.181421">
        <ele>1492.566172</ele>
        <time>2026-01-24T23:36:44.839Z</time>
      </trkpt>
      <trkpt lat="45.043767" lon="6.181526">
        <ele>1493.787619</ele>
        <time>2026-01-24T23:36:52.197Z</time>
      </trkpt>
      <trkpt lat="45.043684" lon="6.181553">
        <ele>1494.913989</ele>
        <time>2026-01-24T23:36:59.939Z</time>
      </trkpt>
      <trkpt lat="45.043631" lon="6.181647">
        <ele>1496.037818</ele>
        <time>2026-01-24T23:37:07.169Z</time>
      </trkpt>
      <trkpt lat="45.043542" lon="6.182209">
        <ele>1497.893355</ele>
        <time>2026-01-24T23:37:39.049Z</time>
      </trkpt>
      <trkpt lat="45.043507" lon="6.182307">
        <ele>1497.893355</ele>
        <time>2026-01-24T23:37:44.116Z</time>
      </trkpt>
      <trkpt lat="45.043415" lon="6.182425">
        <ele>1497.893355</ele>
        <time>2026-01-24T23:37:51.523Z</time>
      </trkpt>
      <trkpt lat="45.043390" lon="6.182586">
        <ele>1497.893355</ele>
        <time>2026-01-24T23:37:58.562Z</time>
      </trkpt>
      <trkpt lat="45.043483" lon="6.182755">
        <ele>1497.893355</ele>
        <time>2026-01-24T23:38:07.654Z</time>
      </trkpt>
      <trkpt lat="45.043512" lon="6.182949">
        <ele>1497.893355</ele>
        <time>2026-01-24T23:38:16.074Z</time>
      </trkpt>
      <trkpt lat="45.043548" lon="6.183023">
        <ele>1497.893355</ele>
        <time>2026-01-24T23:38:19.858Z</time>
      </trkpt>
    </trkseg>
  </trk>
</gpx>